{"type": "FeatureCollection", "name": "parcel_in_scope", "crs_note": "Coordinates are LOCAL metres: x = UTM43N(EPSG:32643) E - 706106.927, y = N - 953717.901. Levels are RL on assumed datum TBM=100.000 (not MSL).", "features": [{"type": "Feature", "properties": {"id": "P1", "deed_label": "47 ac 36.810 cents", "area_m2": 191700.0, "area_ac": 47.37, "status": "in_scope"}, "geometry": {"type": "Polygon", "coordinates": [[[39.966695300652646, 177.80270517524332], [41.867999503272586, 194.29299931239802], [69.56710194528569, 189.24098072736524], [91.99800013040658, 185.03699988813605], [90.12704776262399, 171.70259611762594], [90.1257766704075, 171.68855465960223], [90.13946894009132, 171.68521476758178], [104.83454005944077, 168.8567828501109], [104.84841845103074, 168.85481188527774], [104.85102693911176, 168.86858459445648], [106.68700003472622, 182.07800006866455], [132.90771986718755, 175.45660619228147], [132.92158351023681, 175.45382084604353], [132.92751464108005, 175.46665152010974], [133.8084838371724, 177.64734657038935], [133.8131154467119, 177.66065713914577], [133.80072079284582, 177.66734256094787], [131.04000000667293, 178.98599944275338], [132.06099990021903, 188.00500012259], [136.8732785616303, 197.39288793702144], [136.8793489614036, 197.40631586126983], [136.8860934295226, 197.41941136994865], [138.7679933826439, 201.56098710140213], [145.08230194845237, 214.07572530396283], [145.08831150189508, 214.08923022972886], [145.09153858351056, 214.1035061214352], [145.69646296731662, 217.56049985578284], [145.69828684953973, 217.57511246867944], [145.70094119769055, 217.58959040464833], [146.4119994653156, 222.93399842083454], [150.06800441583619, 230.27800723654218], [152.34399887395557, 234.08799828612246], [157.41883275972214, 239.40834048355464], [157.42842542612925, 239.41944024537224], [157.4300923498813, 239.4218025021255], [157.434064508765, 239.42743124312256], [167.48300044983625, 255.6120006260462], [172.63714668876491, 261.3440419791732], [172.64645003853366, 261.35547042731196], [172.6464545201743, 261.35547530732583], [172.65525539417285, 261.3671824163757], [180.2449989039451, 272.5669993312331], [188.7871146821417, 280.3590704203816], [188.80060416646302, 280.372646918986], [188.80306366516743, 280.375122183701], [190.76832111994736, 282.622929819976], [190.7770573379239, 282.63397310406435], [190.76766744465567, 282.64447095501237], [187.56634513346944, 285.88851730700117], [187.55558042123448, 285.89840469812043], [187.54271086433437, 285.9053555489518], [176.16300482826773, 291.3479976214003], [158.72099728684407, 301.07100194180384], [155.2379064373672, 303.6093226238154], [155.22567417973187, 303.61734846327454], [155.21192817413248, 303.6223751278594], [142.49700043036137, 307.5759992065141], [148.94751897931565, 313.95164032035973], [148.94752801477443, 313.95165017375257], [151.3815711743664, 316.37959778215736], [151.39147926180158, 316.3905030785827], [151.40217880962882, 316.40064895222895], [160.22681737900712, 325.6323482946027], [160.23645968257915, 325.64348170987796], [160.24669803283177, 325.654099542764], [160.73500184214208, 326.21300137159415], [163.89038277813233, 328.11240527778864], [163.90254176408052, 328.12056291115005], [163.9031960943248, 328.1212197059067], [163.90434272529092, 328.1223707360914], [164.08199079695623, 328.3356085161213], [164.4040447102161, 328.3237213578541], [164.4040747367544, 328.32371953874826], [164.41871499782428, 328.32317983417306], [164.7172717313515, 328.3268207699293], [164.73197092383634, 328.32772272627335], [164.74671377975028, 328.32763557473663], [165.1802897307789, 328.34636455751024], [165.19483380008023, 328.34770992829], [165.20853660500143, 328.35282323369756], [165.8831966271391, 328.64306162914727], [165.8966125031002, 328.6496142720571], [165.89712712471373, 328.6500060716644], [165.90826462069526, 328.6584850528743], [169.18173900560942, 331.41451970790513], [169.1925113570178, 331.42453203967307], [169.20363827969413, 331.43417810217943], [171.47135003271978, 333.6038105788175], [171.48149242380168, 333.61451643612236], [171.49236996646505, 333.62447094731033], [176.62799719825853, 338.80999729642645], [200.22039010445587, 361.5227857735008], [200.2299906698754, 361.5329822052736], [200.2200359570561, 361.5428289977135], [197.11999993911013, 364.32199921866413], [195.39870798226912, 379.0643747865688], [195.39628514682408, 379.0788979548961], [195.39436392078642, 379.0934848128818], [193.08900112938136, 391.7609964357689], [190.94399894075468, 411.7550108875148], [189.8731832272606, 425.03532581194304], [189.8712813773891, 425.04992721253075], [189.86989714496303, 425.06456855207216], [187.4149995930493, 442.075997210457], [187.46499970625155, 442.33500005537644], [190.89994503487833, 446.7453734035371], [190.9084049288649, 446.7574111587601], [190.9160356251523, 446.7699387780158], [191.44296368130017, 447.7390578460181], [191.44932793197222, 447.7522694770014], [191.44932879297994, 447.75227183056995], [191.45522540039383, 447.76578133006115], [191.85277880996, 448.81423100840766], [191.857294199639, 448.82816593803], [191.85969374561682, 448.84263534413185], [191.989306684467, 449.9623741914984], [191.99027444398962, 449.97697562968824], [191.98981490242295, 449.980486207176], [191.98910989775322, 449.9858700892655], [191.91576834814623, 450.3656643333379], [191.91229843208566, 450.37982732697856], [191.9090075128479, 450.394171710941], [191.62599404144567, 451.3988209067611], [191.62131155107636, 451.4127785237506], [191.61725200340152, 451.4269475186011], [190.50500015553553, 454.69400093646254], [189.56499959307257, 459.2100017835619], [189.6719992303988, 460.4149987875717], [189.80699828499928, 461.0169954779558], [191.0610005405033, 463.7580005180789], [194.97900666773785, 468.8570077845361], [196.55011016409844, 470.592078612186], [196.55945404071826, 470.6034753260901], [196.56937068048865, 470.6143750178162], [206.88399109896272, 483.1349893445149], [209.13534090074245, 485.7219008830143], [209.1353452039184, 485.7219063467346], [219.5215055522276, 498.0187585951062], [219.52150573162362, 498.0187588299159], [232.909016556805, 514.4540201296331], [249.87724837393034, 533.6529672030592], [249.88641520915553, 533.664426096133], [249.8875071342336, 533.6661053884309], [249.8924146804493, 533.6736532096984], [254.94895647838712, 542.4949250996578], [265.601573289372, 560.7252898756415], [265.60157568054274, 560.7252944712527], [276.2050033969572, 579.330005717813], [278.1080507914303, 582.2976043857634], [278.11516991222743, 582.31000531069], [278.1081916849362, 582.3224762581522], [266.632814619923, 600.6585130081512], [266.62446621910203, 600.6705012032762], [266.62347215251066, 600.671292664716], [266.6130403163843, 600.6795981336618], [260.3599997290876, 605.1750004843343], [260.3967933645472, 605.6223256359808], [260.3972663759487, 605.6366556397406], [260.38595385383815, 605.6454856963828], [253.15196813317016, 610.7410228488734], [242.66253677709028, 618.248616342782], [242.66202874481678, 618.2489787391387], [235.1740061151795, 623.6249947034521], [234.48100149841048, 624.2010014546104], [240.19536102178972, 628.6309768214123], [240.20654580008704, 628.6405620548176], [240.21829828096088, 628.6494423013646], [248.6320004290901, 635.6810007032473], [253.12499654246494, 638.5889973783633], [256.0779978118371, 640.400998614612], [256.8700058470713, 640.843002731679], [259.38598799332976, 642.0869947676547], [264.70101467717905, 644.5860069761984], [267.40097186213825, 645.7919882069109], [270.0714691893663, 646.9159564105794], [273.08397931361105, 637.9340603029123], [273.9480106359115, 635.3239655372454], [275.36469923425466, 630.6820930186659], [275.3696872163564, 630.6682274173945], [275.3738988991827, 630.6541041337186], [276.39310235274024, 627.7628943370655], [276.39851186727174, 627.7496595700504], [276.4126734654419, 627.7477335694712], [287.78800033347216, 626.7659996779403], [286.6289004253922, 617.8875544625334], [284.63082595332526, 601.8996110388543], [284.62976330379024, 601.8855158077786], [284.6432369434042, 601.8812140907394], [325.0527628194541, 591.1337871458381], [325.0664439643733, 591.1308588844258], [325.06919469032437, 591.1437093719142], [325.48264726181515, 593.7004528603284], [325.4842830974376, 593.7151035845745], [325.4868442437146, 593.72962753498], [326.74815790203866, 603.7343874153448], [326.7492812490091, 603.7490765268449], [326.75129639857914, 603.7636698974529], [329.675000121817, 636.8489988849033], [331.8728390058968, 651.6644323263317], [331.8742827089736, 651.679087805911], [331.8763469979167, 651.6936690488365], [333.00700072711334, 664.0100005859276], [339.5589783404721, 664.7879978786223], [343.2213283844758, 665.1077188227791], [343.23592984781135, 665.1097193299793], [343.25061725161504, 665.1108268442331], [343.36400781886186, 665.1250005221227], [348.75996793911327, 665.2729996460257], [352.9172866214067, 665.3307954721386], [352.931980641908, 665.3317215729039], [352.9466984710889, 665.3316424358636], [357.3730013873428, 665.5250006373972], [361.6619948312873, 665.4030008389382], [370.2913456025999, 664.5923766701017], [370.30605335498694, 664.5917201107368], [370.32069093105383, 664.590151213808], [377.93600055319257, 664.1500002855901], [376.94800374028273, 659.7440160064725], [360.67233105178457, 589.566363650607], [360.66970765113365, 589.5518441870809], [360.6659964316059, 589.537565609673], [357.15399917727336, 572.6594139384106], [357.1518086408032, 572.6454940750264], [357.1651954866247, 572.6410664470168], [364.97099975543097, 570.4779996640282], [351.79600062582176, 540.7769999181619], [345.59167237963993, 532.2658968672622], [345.5835884625558, 532.2535808061948], [345.57475937728304, 532.2418022815837], [334.55824530823156, 515.9362031926867], [334.5509468014352, 515.9241670458578], [334.56192388315685, 515.9153345396044], [351.8839995373273, 503.3269998956239], [350.0589995731134, 500.75400000053924], [347.83862456085626, 499.02903107809834], [347.82746282732114, 499.0194461060455], [347.81584023020696, 499.01040499156807], [338.1941652998794, 490.73760029196274], [338.183483265806, 490.72746305610053], [338.17236766254064, 490.7178074803669], [335.77023978263605, 488.4149221268017], [335.7605830007233, 488.40470924251713], [335.763484340976, 488.4013691719156], [335.7648177014198, 488.39983417163603], [346.0060669868253, 478.0750937801786], [346.0164769978728, 478.0655820862157], [346.02759992785286, 478.0742486460367], [361.14688092574943, 491.095704346546], [364.0795766368974, 486.8735037285369], [364.08819832024164, 486.8623067679582], [364.0925617222674, 486.8643702402478], [364.1009705142351, 486.8683468957897], [379.71800111210905, 495.2150012400234], [380.43376156454906, 495.4930981871439], [383.08079158037435, 491.07212501449976], [383.0886428983649, 491.06036164297257], [383.10208195843734, 491.0648664722685], [395.9435654520057, 496.0835216131527], [402.38420567358844, 484.3555610795738], [402.40644809324294, 484.2790472287452], [402.41871927818283, 484.2854240265442], [406.0570013121469, 486.4090006601764], [438.0988568016328, 495.72089021105785], [438.11208652646746, 495.7254499681294], [438.11155497515574, 495.7270336049842], [438.1076341124717, 495.7387155336328], [433.12720864336006, 508.46968490513973], [433.1272076179739, 508.4696871979395], [432.07800288766157, 511.14600120240357], [460.68489136116114, 519.7657488577534], [460.6978639254812, 519.7703636240913], [460.68997854273766, 519.7816466124495], [458.28300071822014, 522.8889995554928], [459.1190035727341, 548.7860943776323], [459.69599987822585, 563.9329995309236], [467.48099987080786, 565.6339996542083], [481.74418519693427, 532.4235387204681], [481.750463005621, 532.4106991703156], [481.7552830646746, 532.410440435051], [481.76473419053946, 532.4099329789169], [551.3872681177454, 532.0940666617826], [551.4011842265027, 532.0946871791966], [551.4006752400892, 532.0986842577113], [551.3994250387186, 532.1085018143058], [546.2700002138736, 560.99400097935], [546.9899993997533, 562.9380001069512], [556.3779928900767, 561.2480017804774], [568.0186676762532, 558.4804073112318], [568.033150621457, 558.4777071214048], [568.0474574435502, 558.4741853135638], [579.6929994917009, 556.2069995683851], [585.9009995092638, 547.7030012115138], [589.453000771231, 539.7339974980569], [589.7517383469967, 537.8115566218039], [589.7547106436687, 537.7971351252636], [589.7573046811158, 537.7826442014193], [592.3246975103393, 526.6283497146796], [592.328500725911, 526.6148858105298], [592.3302417770028, 526.6153616252122], [592.3419946454233, 526.6185740306973], [593.4539985602023, 526.981999592972], [621.1692888595862, 525.5127795778681], [621.1839069995331, 525.5127230767393], [621.198006550665, 525.5165349985473], [644.878988917917, 533.1834640402813], [644.8927065390162, 533.1886617231648], [644.8927237251773, 533.1886694470886], [644.8927401725668, 533.1886756784515], [644.9061222360469, 533.1946893123677], [647.6458851316711, 534.5913146494422], [647.6579994645435, 534.5982586307218], [647.6507651206339, 534.6102012848714], [646.9510001046583, 535.6470000643749], [614.3518111910671, 611.3005138586741], [614.3518108202843, 611.3005146150244], [608.4260011909064, 624.9670005826047], [609.4431695771636, 625.7222160105594], [609.4542066208087, 625.7312831615563], [609.453202519333, 625.7363181354012], [609.452988804318, 625.7373895923374], [608.2900611695368, 630.0329993600026], [615.0302734205034, 629.9521764591336], [615.0449881191598, 629.9527225111378], [615.0596867809072, 629.9530309875263], [646.4989999239333, 632.1590006416664], [670.5671066729119, 577.0045058473479], [670.5736612171168, 576.9912954198662], [670.5792403330561, 576.9776467500487], [681.0969999757363, 554.4710009059636], [679.6669994817348, 536.5219996013911], [635.7930001772474, 486.41100046318024], [607.787522393046, 481.6584646808915], [607.7739802446449, 481.65547633648384], [607.7790248116944, 481.6425675142091], [613.7809996767901, 468.2600018909434], [613.6592422887916, 460.87272944883443], [613.6597029642435, 460.8586093893973], [613.662824754836, 460.8580536424415], [613.6736107211327, 460.85613339743577], [654.0939623703016, 455.6910057438072], [678.3919999352656, 452.24600011110306], [677.3490107982652, 447.52404727996327], [676.122240097844, 442.09035122033674], [676.1197058456019, 442.0758502816316], [676.116142000421, 442.0615654013818], [675.2949996545212, 437.9140002350323], [674.0946668196702, 433.2332997160265], [674.0946651126724, 433.23329137370456], [672.0579969942337, 424.75499320134986], [670.1675119542051, 420.07165595749393], [670.1626815332565, 420.05776154610794], [670.1574041194981, 420.044015344698], [667.8349787087645, 412.97693648270797], [667.5920010936679, 412.2450030897744], [661.935999801266, 400.87699932267424], [628.3827007738873, 403.1230157155078], [628.3688511981163, 403.1232614063192], [628.3696332238615, 403.11839350964874], [628.371048382367, 403.1095833000727], [632.307954082964, 384.4904056418454], [632.3116196282208, 384.47648346365895], [632.324232834042, 384.4695221435977], [639.5899989986792, 380.91300002578646], [638.9259366978658, 378.52018655091524], [638.9228401790606, 378.50644547422417], [638.9359517008997, 378.501281061559], [651.3260805669706, 374.3107197356876], [651.2258638895582, 373.8095591914607], [651.2244103720877, 373.7949541489361], [650.1222507603234, 351.8148369792616], [649.427843383397, 342.96941311086994], [648.3208676332142, 329.05267802160233], [648.3208675954957, 329.0526767723495], [647.0997816075105, 312.1719384742901], [644.3101974809542, 307.59698328678496], [643.4715312035987, 306.39752571017016], [620.332913341932, 295.46439159289], [620.3329088798491, 295.4643892101012], [600.3455705274828, 285.781958603533], [590.9953239195747, 281.4971501592081], [590.982269007829, 281.4903737816494], [590.9691710037878, 281.4836638101842], [589.3627880850108, 280.558535766555], [585.8299917236436, 278.8783317806665], [574.8833567532711, 273.76224265946075], [574.8833543465007, 273.7622413870413], [559.2111849880312, 266.21838994231075], [557.1534989587963, 265.2397512686439], [557.1405865539564, 265.2328135120915], [557.1289957385743, 265.223858938436], [544.0131483499426, 254.02172919805162], [522.7552643619711, 238.85090004617814], [522.7437291489914, 238.84178188606165], [522.7319613142172, 238.8329293896677], [471.93039536639117, 196.55990581598599], [471.919614426326, 196.55000090028625], [471.91960503184237, 196.54999039159156], [471.9195949063869, 196.54998061037622], [471.9195645718137, 196.5499466813635], [471.91012029070407, 196.53883325087372], [460.4431428022217, 181.62189816054888], [459.8747526122024, 181.3520030961372], [365.73097308096476, 163.318731926498], [365.7171720417682, 163.3153789312346], [365.71558823180385, 163.30125431716442], [365.3979208327364, 158.2296944744885], [365.3977225809358, 158.21499759075232], [365.3971240010578, 158.20027363230474], [365.49360720219556, 146.77993897139095], [365.49445312761236, 146.7652478379896], [365.4949135875795, 146.75053699791897], [366.19785746221896, 138.02272596838884], [366.06276808993425, 129.6316280872561], [365.60106542147696, 123.23279365943745], [365.6007283596555, 123.2181279505603], [365.6009009591071, 123.20341739279684], [365.7250642442377, 121.16387225908693], [365.8501229628455, 119.10962662589736], [365.8177636874607, 116.81146293564234], [360.26484185492154, 100.89119761576876], [353.47340724116657, 103.97591059131082], [353.4599377432605, 103.9812478988897], [353.4590733345831, 103.98106539831497], [353.4457548727514, 103.97825364815071], [351.77824184438214, 103.53974491544068], [351.7642501362134, 103.53532112715766], [351.7601076179417, 103.53362113668118], [351.7506597385509, 103.52974390808959], [345.84533993853256, 100.76025643618777], [345.8323713093996, 100.75337851978838], [345.83182252477854, 100.75301605043933], [345.82011643925216, 100.74528452113736], [333.89185856992844, 91.99669780069962], [333.88083748565987, 91.9877521453891], [333.885169188492, 91.9742120958399], [336.9420016926015, 83.82099501392804], [341.3190003919881, 68.88999935472384], [330.7294894012157, 66.97661777539179], [330.7157304266002, 66.97342772805132], [330.7157370809, 66.97295508300886], [330.7433148876298, 66.71815894730389], [330.777357613435, 66.73914519511163], [332.09722110128496, 61.76823082205374], [332.101695183781, 61.754195916000754], [332.10535804380197, 61.739938293001615], [333.37851979164407, 57.63183344504796], [328.39800377516076, 56.20700045640115], [324.21547665970866, 55.41972475394141], [324.2016895924462, 55.41642182774376], [324.20151272963267, 55.413446536287665], [324.2011881559156, 55.407986606587656], [324.2290024609538, 36.87482322566211], [310.97772333212197, 36.582325112307444], [310.9630198527593, 36.58127718325704], [310.94834717572667, 36.580519348732196], [308.52801077999175, 36.33600090269465], [303.47400020679925, 35.9939997344045], [300.9540025430033, 36.60799938160926], [298.56221284449566, 37.26310716860462], [298.54781872197054, 37.26629923109431], [298.5336896555964, 37.270504654967226], [296.00230750022456, 37.89049551880453], [295.98792327346746, 37.893278314732015], [295.97327829769347, 37.89356639957987], [293.1137259451207, 37.80943280667998], [293.099094316829, 37.80828166916035], [293.0847921706736, 37.80514280858915], [283.1462229453027, 35.10686164838262], [283.1462071585702, 35.10685651784297], [278.4841488924576, 33.75410573114641], [278.4841477511218, 33.754105338128284], [274.74906535819173, 32.61429251288064], [274.7490653482964, 32.61429250927176], [269.50399461050984, 30.931998705025762], [266.995997074293, 30.236999267479405], [264.1690049842, 30.13300000980962], [261.50799998128787, 30.449000937049277], [259.1559904803289, 31.526004618150182], [256.7590252937516, 32.8039862223668], [254.56099870672915, 34.03800093464088], [252.30599849508144, 35.38900094665587], [250.23499849811196, 36.837000551400706], [248.50900203210767, 38.7639970977325], [247.3080006922828, 41.16500115767121], [247.20099936483894, 43.66400982753839], [247.239855640335, 47.635275027598254], [247.2392781006638, 47.64996582164895], [247.23810001136735, 47.66460062691476], [247.07800229790155, 48.894985106540844], [245.22552204097155, 66.72535248403437], [245.2232795121381, 66.73993360809982], [245.22133245458826, 66.75448228151072], [244.7686664937064, 69.21251775010023], [244.7654069219716, 69.22636461618822], [244.76271566096693, 69.22680305654649], [244.75660008285195, 69.2277992037125], [238.1726503582904, 69.89950528705958], [238.15819575067144, 69.90026550577022], [238.14602968271356, 69.89240863465238], [237.7010000925511, 69.57299996144138], [228.2039994132938, 71.46900067653041], [207.33399725728668, 80.08300102350768], [196.5909694301663, 85.8640204112744], [196.57773548725527, 85.8703250734834], [196.5777078217361, 85.87033575330861], [196.5776838059537, 85.87034719670191], [196.56401541049127, 85.8756248569116], [185.10299844725523, 89.66600081033539], [175.55299954290967, 92.99499976297375], [178.49862620898057, 105.5146609111689], [178.50117228191812, 105.52849662746303], [178.4972377131926, 105.52969666186254], [178.48771339061204, 105.5326017717598], [161.576597310137, 109.7958995141089], [161.49921395769343, 109.84600058046635], [161.49679073109291, 109.842257686425], [161.48172118584625, 109.81977770139929], [161.48164878436364, 109.77321680600289], [159.21300013631117, 100.12600049423054], [140.20935914455913, 101.5608778266469], [122.70399361092132, 103.70339883479755], [122.68858375004493, 103.7045212284429], [122.67601018783171, 103.70543690701015], [114.16899554454722, 103.88600054569542], [112.70339403487742, 104.06693815859035], [112.45561067515519, 115.10573315119836], [112.45456444483716, 115.1203387392452], [112.45451517729089, 115.12051822780631], [112.45079659926705, 115.13406681490596], [112.19283096038271, 115.91866726952139], [112.47378132422455, 134.8212695014663], [112.47328704840038, 134.83571646222845], [112.46999507455621, 134.83945898071397], [112.46884857839905, 134.84076230309438], [110.17399273242336, 137.1240254744189], [109.70981761300936, 138.8547656708397], [109.70543586439453, 138.86839102522936], [109.69152551540174, 138.87165958818514], [93.34300357324537, 141.87599912344012], [91.6579496805789, 142.4482627225807], [91.64383147412445, 142.45229656691663], [91.63957034691703, 142.45307260251138], [91.63604292587843, 142.45371490088291], [89.92494567844551, 142.65400774264708], [71.55156396445818, 145.44178968283813], [71.5369106765138, 145.44328192737885], [71.52236216748133, 145.4456664531026], [60.141639399225824, 146.74133331340272], [60.12413442262914, 146.74246002861764], [60.117025273735635, 146.74291766469833], [57.839013596763834, 146.7560650757514], [59.59104551945347, 155.30957583687268], [59.59329050825909, 155.32413747278042], [59.5964465822326, 155.33851763233542], [61.066551314201206, 164.0604745876044], [61.06820549222175, 164.0744407348102], [61.06608179747127, 164.07492786226794], [61.05449702846818, 164.07758505875245], [38.793999925488606, 168.04500019503757], [39.9632336179493, 177.77330152282957], [39.96427448512986, 177.78808796557132], [39.966695300652646, 177.80270517524332]], [[330.0679983468726, 66.30555544933304], [330.0685417202767, 66.30218294833321], [330.0792159999255, 66.30876329913735], [330.067773657036, 66.30920022400096], [330.0679983468726, 66.30555544933304]]]}}, {"type": "Feature", "properties": {"id": "P2", "deed_label": "21 ac 89.200 cents + 4 ac 28.000 cents (share a boundary, merged)", "area_m2": 105922.5, "area_ac": 26.174, "status": "in_scope"}, "geometry": {"type": "Polygon", "coordinates": [[[703.2883675136836, 225.96392484556418], [711.2579650713596, 221.63601975655183], [717.7401979563292, 218.01614873099606], [717.7402014036197, 218.01614702120423], [742.0291027798085, 204.59912421938498], [742.0291051988024, 204.599123034277], [774.6430801487295, 187.08993608981837], [785.8149872228969, 181.1439255202422], [785.828340929118, 181.13763949018903], [785.8411556635983, 181.1303480239585], [786.6209814992035, 180.73600966564845], [799.0330000808463, 173.95799988147337], [791.6464354855707, 158.748251036508], [791.640913160285, 158.7352982055163], [791.6530173178762, 158.72811611625366], [800.332967599039, 154.13789200701285], [800.3456964268116, 154.1319412398152], [800.3525485191494, 154.14420571317896], [807.8579997241031, 169.2790002709953], [820.2560107553145, 162.7759948176099], [832.8411232767394, 155.9060292453505], [832.8411275640829, 155.90602717013098], [844.8310810700059, 149.4469598736614], [861.9919975708472, 140.42599517165218], [856.1489968551323, 128.07199392013717], [852.7239995532436, 121.56499918666668], [851.8625119592762, 122.25280874024611], [851.8506006295793, 122.26139654428698], [851.849596131593, 122.26198528439272], [851.8379464029567, 122.26881300110836], [843.7540482628392, 126.488189181895], [843.7540412641829, 126.48819240857847], [840.3500424638623, 128.2379777446622], [823.7830849706661, 136.79624035849702], [823.7700515884208, 136.80218220502138], [823.7488907786319, 136.7890917066252], [823.7205139945727, 136.77743020479102], [823.7136634024791, 136.764699819847], [816.9999996600673, 122.67200052342378], [800.5360000230139, 130.52500062866602], [808.7443832316203, 144.11039458436426], [808.7510310749058, 144.1227263477631], [808.7389120621374, 144.12976267316844], [797.134089286672, 150.1262363109272], [797.1212531522615, 150.13208964595105], [797.1133205614751, 150.12044784298632], [788.5270020657917, 136.087002481916], [777.1390011641197, 121.49300051701721], [767.5935393928085, 112.17229130666237], [767.5796518268762, 112.15733098553028], [767.5791120923823, 112.15674954536371], [765.5142436042661, 109.60442580201197], [765.5056319662835, 109.59264109830838], [765.4999552774243, 109.57917068968527], [760.9300009863218, 97.0510022820672], [757.502999727265, 90.54300000250805], [750.5819942274829, 83.6059939826373], [744.6330015315907, 78.90300031483639], [740.1800063772826, 76.47600360738579], [737.4820004415233, 75.35899992985651], [736.9909437595634, 77.12481790781021], [736.9863318578573, 77.13872105255723], [736.9797050957568, 77.15179258608259], [724.5379072043579, 98.96878996654414], [724.530446866178, 98.9804968353128], [724.5198881771648, 98.97149564744905], [716.7350003077881, 91.64600029960275], [712.0480153933167, 89.44900748506188], [707.513493882725, 87.42502341745421], [707.5134903406724, 87.42502162244637], [696.3170328654815, 82.36101486103144], [664.3430696544237, 67.90191029082052], [664.3430665094638, 67.90190868335776], [653.6917355810292, 63.07240252394695], [653.6917361514643, 63.072401307174005], [660.4618310021469, 48.6301605864428], [664.1829919453012, 40.755000607459806], [658.0599790527485, 41.0363538042875], [658.0455750573892, 41.036307601374574], [658.0359719943954, 41.02560470707249], [657.4225009123329, 40.27042664773762], [643.8064826829359, 34.26694459095597], [643.793314016657, 34.260348226642236], [643.7798904633382, 34.254267429118045], [640.7749972754391, 32.71099886565935], [635.449716408737, 31.355701885418966], [626.2447745633544, 30.105414126301184], [614.548074235674, 29.159174060681835], [614.53349789395, 29.15727144596167], [614.5188697915291, 29.155579069280066], [597.8560399347916, 26.393675530911423], [597.841652469011, 26.390558926854283], [597.8270780671155, 26.38839097134769], [587.1436119867722, 24.259071091073565], [586.0039689260302, 24.0348481714027], [579.8430700555909, 23.92766599613242], [576.4936890072422, 24.210457834531553], [576.4789454472484, 24.21097549877595], [576.4642703304999, 24.21246273908764], [570.7506921563763, 24.508989011286758], [570.7359652810264, 24.50902972347103], [570.7212670902954, 24.509326141211204], [567.2123065624619, 24.407893905998208], [567.1976942226756, 24.406752385315485], [567.1976701725507, 24.40674887120258], [567.1976625758689, 24.406748277833685], [567.1831352795707, 24.404626444447786], [558.2009752470767, 22.638683447963558], [550.9115921722259, 22.1851543962257], [536.0079012997448, 22.7737468018895], [535.988752593752, 22.773562721558847], [535.9852673270507, 22.773529277765192], [528.3639032536885, 22.21293175709434], [528.3493450626265, 22.21113879221957], [528.3474418109981, 22.210711822030134], [528.3351035563974, 22.20794338185806], [486.62992819654755, 10.669049096642993], [486.61609556141775, 10.664480276987888], [486.55174218607135, 10.608975091134198], [478.6272611391032, 6.730385016999207], [460.59699961496517, 1.1010001891991124], [458.78548521071207, 8.53769315755926], [458.7814734184649, 8.551235036109574], [458.7772379037924, 8.550914268940687], [458.7673839688068, 8.550168233225122], [445.6699996270472, 6.908999338163994], [436.19651255593635, 36.36396899051033], [436.1965081844246, 36.36398059409112], [434.1629981530132, 42.4210090105189], [432.82483114197385, 53.10038296692073], [432.8222859281814, 53.114884066279046], [432.8203364862129, 53.12949198868591], [431.559000003268, 59.992000811733305], [431.44910650746897, 61.45130762504414], [431.4473366411403, 61.465480625163764], [431.4428161084652, 61.46721644245554], [431.441271038726, 61.467809746507555], [424.5090604022844, 63.61165190883912], [424.49485170445405, 63.615292245172895], [424.4920599828474, 63.61574928567279], [424.48037241143174, 63.61766230780631], [414.4095988558838, 64.76234033179935], [414.4095582732698, 64.76234294124879], [413.6706170372199, 64.84045529761352], [413.65593690797687, 64.84127846779302], [413.6559274303727, 64.84127963765059], [413.6559243472293, 64.84127981076017], [413.64128722972237, 64.84163953654934], [397.6987178552663, 64.45136000821367], [397.68403757433407, 64.45027846295852], [397.6693285931833, 64.44973581389058], [387.69466871011537, 63.59026392083615], [387.6800861937227, 63.58828295569401], [387.66548036248423, 63.586529591004364], [378.99751827761065, 62.111471078242175], [378.9831998264417, 62.10830467718188], [378.9690591362305, 62.104231577483006], [372.66993767698295, 59.94976676988881], [372.65625103283674, 59.94432166684419], [372.64223660063, 59.939749602694064], [365.6229973399313, 57.261999422335066], [365.11200365098193, 57.170999516849406], [364.6869930305984, 57.19300071557518], [364.1460038032383, 57.280999023932964], [363.8519985714229, 57.396000929758884], [363.6379995342577, 57.6160006923601], [362.4932308130665, 60.31045565207023], [359.48300225904677, 67.4149943384109], [356.91299773182254, 73.71200503152795], [354.5640010376228, 79.78699731267989], [353.81800015235785, 82.22700257063843], [353.59300003026146, 83.97999796527438], [353.782000216539, 85.9910016101785], [355.33199818397406, 88.28199844365008], [359.92799887631554, 94.22999853093643], [368.38735060894396, 102.28585855988786], [368.39731559704524, 102.29632591234986], [368.39939204696566, 102.31067870557308], [368.75663935835473, 106.07828525442164], [369.4636051317211, 112.26840776146855], [369.4645566698164, 112.2831087707309], [369.4658172142226, 112.29775861650705], [369.55571460793726, 114.74295137170702], [369.9222939624451, 116.97937386494596], [369.92395862785634, 116.9939980917843], [369.9249859198462, 117.00865502469242], [370.3143687499687, 135.6731419074349], [371.0905022730585, 144.13152738846838], [371.0911269321805, 144.14624475501478], [371.0919548482634, 144.16092192567885], [371.18807324033696, 157.38931471819524], [378.73541157180443, 159.91722813551314], [406.42701761517674, 165.55196444038302], [462.727241618908, 177.00803421647288], [462.7413381157676, 177.0116306389682], [462.75272976083215, 177.02068144315854], [504.8280728844693, 213.95691605785396], [504.8280780991772, 213.95692110911477], [525.0405654609203, 232.03602646233048], [525.0410431770142, 232.03645418514498], [530.5559017180931, 236.9556689108722], [531.2062193286838, 237.5254603922367], [537.2823000543285, 242.849311925238], [545.9060726632597, 250.4054498822661], [560.3172137202928, 261.47742690274026], [577.1739942335989, 269.30763760907575], [585.9069709633477, 273.3689869933296], [589.5009987498634, 275.01954889530316], [595.3928041498875, 277.7364276389126], [595.3928042345215, 277.7364276831504], [604.9950323826633, 282.24594459240325], [604.9950328437844, 282.2459448368754], [625.5722729187692, 291.9441333527211], [625.5722830139566, 291.94413840037305], [631.7773470517714, 294.8686231995234], [647.7056467306102, 302.31475757074077], [647.7186695099808, 302.3216439313255], [647.7186696653953, 302.3216440042015], [647.7312735408777, 302.32914135511965], [651.0247250369284, 304.5138570701238], [651.0363947721198, 304.52245138713624], [651.036809770856, 304.5235991526861], [651.0404117656872, 304.5335615052609], [653.2807435467839, 311.95989109843504], [653.2843017082196, 311.9741918031359], [653.2886743284762, 311.98827896942385], [653.7663309974596, 313.84473839437123], [653.7692995383404, 313.8591782982694], [653.773254918633, 313.87336416135076], [654.7277465866646, 318.0856421677163], [654.730280308635, 318.1000758523587], [654.7302836405579, 318.10010390204843], [654.7302844655933, 318.1001086020842], [654.732018799521, 318.11470348457806], [656.91398285795, 349.61431191081647], [656.9142789588077, 349.62904861406423], [656.9157004948938, 349.6437043546466], [657.1382981904317, 354.3132872614078], [657.138276828453, 354.3279596671928], [657.1383501854725, 354.3427151340293], [656.1889996734681, 375.84699865046423], [657.1120517961681, 378.04812294302974], [663.8177555138245, 393.79360416764393], [704.2216279654531, 393.6043991408078], [704.2216292573139, 393.6043991979677], [743.3948189814109, 393.6628593336791], [743.4089044784196, 393.66357292130124], [743.4103883435018, 393.67759393225424], [744.246088036336, 408.49724279902875], [755.9969121811446, 411.3074343636399], [756.010515119182, 411.3114021063084], [756.0105413824786, 411.3138522247318], [756.0106143037556, 411.3206697241403], [755.2008807033999, 428.1123967950698], [755.6281793839298, 442.7093706356827], [758.6821065306431, 461.29507110465784], [767.6414233722026, 483.9948580125347], [767.6461471399525, 484.00879151863046], [767.6513667617692, 484.02255512215197], [769.5870081690373, 489.9950251141563], [772.7089990068926, 499.50499969895463], [774.0131466523744, 501.986957551213], [774.0193534509744, 502.0003250442678], [774.0262528454186, 502.01334152789786], [778.4819996512961, 511.5199999321485], [784.6109992869897, 519.3099994275253], [795.0829863165272, 517.3540025255643], [795.9100041289348, 517.1869991163258], [797.0095784759615, 516.957015866763], [797.0241342498921, 516.9547104159137], [797.0385723218787, 516.9518518549157], [798.7129955438431, 516.7050003234763], [803.3979853857309, 515.8890029396862], [807.184566752403, 515.1129576723324], [807.1991407077294, 515.110709597473], [807.2134946776787, 515.1073645979632], [807.5255108913407, 515.0506343772868], [807.5400516360532, 515.0487216747133], [807.5417988041881, 515.0486647456419], [807.5515680561075, 515.0483462676639], [817.3130001013633, 515.2670002297964], [823.1654554810375, 514.6794602458831], [828.2734295312548, 514.1814203356626], [828.2734361862531, 514.1814200134249], [835.0540019812761, 513.5389995127916], [838.6910000636708, 512.6960001011612], [839.6868932974758, 508.0873782497365], [839.686896562227, 508.0873660678044], [840.8646411506925, 503.0623308150098], [840.8687005016254, 503.0481806121534], [840.8720911323326, 503.0338501095539], [844.2029110642616, 491.51214594207704], [844.2076861322857, 491.4982274854556], [844.2116633320693, 491.4840300724609], [847.2190010613995, 482.4759957328206], [847.7363189010648, 479.6824785906356], [847.739708880661, 479.6681415713392], [847.7423202749342, 479.65365143632516], [848.2550038349582, 477.4379849010147], [848.9699026836315, 474.05946475837845], [850.4599964914378, 466.96201674698386], [851.6841040784493, 460.8534517736407], [851.6877056789817, 460.8391615963774], [851.690413113567, 460.8246608990012], [853.5509991033468, 453.0090007126564], [853.961009533261, 450.56294305680785], [855.2469998990418, 442.11899974104017], [857.6010461510159, 405.861696722568], [857.6027209965978, 405.84705818176735], [857.603395035374, 405.8323405771516], [858.7949975031661, 393.30603409418836], [860.296999946353, 376.47399940539617], [860.7466326889116, 358.45073827088345], [860.7477235019905, 358.43603961204644], [860.7477517228108, 358.42127638554666], [861.4672477673739, 344.33771511213854], [861.4687219976913, 344.32304396783], [861.4696838313248, 344.30836518097203], [861.6163170334185, 343.0336338770576], [861.6186218224466, 343.0196733857738], [861.632714656298, 343.018512617331], [876.4252406841842, 342.52848898491357], [876.4252437169198, 342.5284890336916], [888.2111511880066, 342.27707547834143], [888.1050523656886, 340.5877045325469], [876.1627318982501, 340.6259528956143], [876.1487064524554, 340.62530877662357], [876.1483657333301, 340.61127582460176], [876.4716348494403, 327.58472774061374], [876.4726748801768, 327.5706814829027], [876.486725198687, 327.56980693654623], [882.876293856767, 327.4861920794938], [882.8910028064856, 327.48672079259995], [882.9057014543796, 327.48610336659476], [888.3079994319705, 327.52400015085004], [888.5660529468441, 301.34557430131827], [857.8199949447298, 315.84400231100153], [847.3329724264331, 321.08551587269176], [841.3601857124595, 324.04945687321015], [841.3467598751886, 324.0553171673091], [841.3326804016251, 324.05944088404067], [840.9743036224972, 324.1455624355003], [840.9599323620787, 324.14827884035185], [840.95987237792, 324.1482884027064], [840.9598661912605, 324.14828957174905], [840.9453577958047, 324.150602578884], [796.4330327276839, 329.02199666039087], [779.4854117046343, 331.043776000035], [779.4851518694777, 331.043776000035], [760.4248686939245, 333.33401585544925], [742.0206026986707, 335.6131911731791], [742.0060022175312, 335.6142761275405], [742.0059523055097, 335.6142783833202], [742.0059413458221, 335.61427919741254], [741.9912756473059, 335.61494213016704], [739.9697230013553, 335.6070569906151], [739.9555073699448, 335.60630333062727], [739.9504424977349, 335.59300203458406], [739.1745514750946, 333.209978778963], [739.1745496076765, 333.2099719188409], [734.6259965318022, 318.44798876938876], [732.1684136522235, 310.6410202187253], [732.1684116973775, 310.64101274998393], [729.7780090732267, 302.78102824278176], [727.4420018175151, 295.42100451898295], [723.8319968245924, 284.42599076172337], [717.0699452273548, 265.45187611551955], [717.0657123308629, 265.4378581874771], [717.0652704606764, 265.4333130993182], [717.0649809805909, 265.43033543461934], [716.7584758403245, 255.95171440544073], [716.7587221510476, 255.93704373156652], [716.7590757922735, 255.93364423513412], [716.7602411118569, 255.92244460387155], [717.1857596484479, 253.15855327283498], [717.1887008389458, 253.1441790079698], [717.1896468148334, 253.14099408732727], [717.1928819997702, 253.1301006139256], [717.7239996121498, 251.61799976835027], [717.4267571066739, 249.43883531086612], [717.1350306818495, 249.31181760772597], [717.1325370783452, 249.31046912434977], [717.1322388324188, 249.3099045768613], [717.1265151123516, 249.29906981054228], [715.9919991310453, 246.8519996254472], [715.1267038758378, 245.44056667748373], [715.1196223266888, 245.4276299381163], [715.1115525419591, 245.41528632829431], [712.446001029457, 240.8650007066317], [710.6728895881679, 238.07541222206783], [710.6656127625611, 238.06261951092165], [710.6573703589384, 238.05042536673136], [708.8320026010042, 235.04200381028932], [704.8901287169429, 229.07929619424976], [704.8828188554617, 229.0669622933492], [705.01583548286, 228.7892618351616], [703.288360984181, 225.96392865246162], [702.9769168080529, 225.45455271669198], [703.2883675136836, 225.96392484556418]], [[629.7401022034464, 122.38473386340775], [630.7475338472286, 116.45351724745706], [630.7475329878507, 116.45352442585863], [629.7401022034464, 122.38473386340775]], [[629.4357451518299, 126.71155313565396], [629.4357266167644, 126.71153906884138], [629.2748155036243, 126.57648867031094], [629.4357451518299, 126.71155313565396]], [[644.4808048451087, 134.19244751089718], [644.4808154216735, 134.1924534267746], [629.7722009662539, 126.88855537516065], [629.7721925533842, 126.88855066907126], [644.4808048451087, 134.19244751089718]], [[640.9174481312511, 147.87768396676984], [640.9174457171466, 147.87769219384063], [642.1005482056644, 142.9653312471928], [642.100552833057, 142.96531548001803], [640.9174481312511, 147.87768396676984]], [[639.0930268149823, 154.23415783629753], [639.0930272273254, 154.23415649973322], [639.2746079846984, 153.7341519028414], [639.0930268149823, 154.23415783629753]], [[639.0828888582764, 154.30381283932365], [639.08665632864, 154.26267206296325], [639.0866566604236, 154.26266971603036], [639.0828888582764, 154.30381283932365]], [[639.4848403520882, 155.00939553242642], [639.484825897147, 155.00938914669678], [639.2381527700927, 154.88560080097523], [639.238139476045, 154.88559329207055], [639.4848403520882, 155.00939553242642]], [[640.3495005526347, 155.3158728426788], [643.53147191077, 156.70011466741562], [643.5315793321934, 156.7001619504299], [640.349500407814, 155.3158727879636], [640.3495005526347, 155.3158728426788]], [[649.9334652561229, 159.51804193900898], [649.9334762882208, 159.5180474591907], [649.93348089559, 159.5180495143868], [649.869774484192, 159.49000755138695], [649.9334652561229, 159.51804193900898]], [[665.7734556932701, 167.1548700450221], [670.077392406296, 169.8743052422069], [665.7734519684454, 167.15486793988384], [665.7734556932701, 167.1548700450221]], [[680.7413551359205, 176.93237359798513], [682.506648786366, 178.38962943013757], [682.5066558324033, 178.3896358528873], [680.7413519871188, 176.9323712484911], [680.7413551359205, 176.93237359798513]], [[682.5288319085957, 178.40897161897738], [687.0571757761063, 182.57803421618883], [687.0571614739019, 182.5780222909525], [682.5288067650981, 178.40895065292716], [682.5288319085957, 178.40897161897738]], [[701.5933735468425, 193.85598051489796], [701.5933748255484, 193.85598161141388], [687.0796394686913, 182.5970295817824], [687.0796370236203, 182.59702748490963], [701.5933735468425, 193.85598051489796]], [[702.1015742699383, 194.26871086715255], [702.1015849044779, 194.26872041658498], [701.7470594806364, 193.9804931349354], [702.1015742699383, 194.26871086715255]], [[702.1224515015492, 194.2892938113073], [702.1235473696142, 194.29060323315207], [702.1224514095811, 194.2892937117722], [702.1224515015492, 194.2892938113073]], [[702.3124859764939, 194.5250343841035], [702.4355179531267, 194.90997534128837], [702.4355236281408, 194.90999664994888], [702.3124833273469, 194.52502731303684], [702.3124859764939, 194.5250343841035]], [[702.4394634421915, 194.93872657278553], [702.4345072853612, 195.07466687378474], [702.4394626796711, 194.93866639549378], [702.4394634421915, 194.93872657278553]], [[702.277107000351, 195.78642524720635], [702.277104163426, 195.78643979213666], [702.3218930907315, 195.4765742594609], [702.3218975653872, 195.47655131749343], [702.277107000351, 195.78642524720635]], [[702.2722155703232, 195.8154579309048], [702.2047877230216, 196.16552853549365], [702.2047851018142, 196.1655392748071], [702.2722178307595, 195.815442029736], [702.2722155703232, 195.8154579309048]], [[702.1978280917974, 196.19413400697522], [701.3601854467997, 199.03182173788082], [701.3601810401306, 199.03183434344828], [702.1978295937879, 196.19412781356368], [702.1978280917974, 196.19413400697522]], [[697.6744927036343, 212.64948208024725], [697.6744937250623, 212.64949041511863], [697.5985072392505, 212.20951766893268], [697.5985072292387, 212.20951758767478], [697.6744927036343, 212.64948208024725]], [[697.1244425131008, 214.96168744459283], [697.1244439322036, 214.96167994115967], [697.1254230603809, 214.95760845788755], [697.1244425131008, 214.96168744459283]], [[697.0184312690981, 215.58848305721767], [697.0184327508323, 215.58847043209244], [697.1185668230755, 214.9905269718729], [697.118571396335, 214.99050603120122], [697.0184312690981, 215.58848305721767]], [[632.1971710685175, 107.87665506929625], [632.197179684299, 107.87663374771364], [634.2618125776062, 103.41138051880989], [634.2618236013222, 103.41135945892893], [632.1971710685175, 107.87665506929625]], [[630.7521612677956, 116.42441992228851], [630.7521560053574, 116.42444639187306], [631.5798389168922, 110.83957882493269], [631.5798424967797, 110.83956081804354], [630.7521612677956, 116.42441992228851]]]}}]}