{"type": "FeatureCollection", "name": "site_features", "crs_note": "Coordinates are LOCAL metres: x = UTM43N(EPSG:32643) E - 706106.927, y = N - 953717.901. Levels are RL on assumed datum TBM=100.000 (not MSL).", "features": [{"type": "Feature", "properties": {"layer": "RD", "kind": "existing_road_edge"}, "geometry": {"type": "LineString", "coordinates": [[234.48100000002887, 624.2010000000009], [227.6359999999404, 618.5110000000568]]}}, {"type": "Feature", "properties": {"layer": "RD", "kind": "existing_road_edge"}, "geometry": {"type": "LineString", "coordinates": [[227.6359999999404, 618.5110000000568], [217.89299999992363, 610.9590000000317]]}}, {"type": "Feature", "properties": {"layer": "RD", "kind": "existing_road_edge"}, "geometry": {"type": "LineString", "coordinates": [[205.75800000003073, 619.8060000000987], [213.24800000002142, 625.4740000000456]]}}, {"type": "Feature", "properties": {"layer": "RD", "kind": "existing_road_edge"}, "geometry": {"type": "LineString", "coordinates": [[213.24800000002142, 625.4740000000456], [227.1139999999432, 636.1060000000289]]}}, {"type": "Feature", "properties": {"layer": "RD", "kind": "existing_road_edge"}, "geometry": {"type": "LineString", "coordinates": [[227.1139999999432, 636.1060000000289], [231.19999999995343, 639.7930000000633]]}}, {"type": "Feature", "properties": {"layer": "RD", "kind": "existing_road_edge"}, "geometry": {"type": "LineString", "coordinates": [[231.19999999995343, 639.7930000000633], [239.84600000001956, 646.3220000000438]]}}, {"type": "Feature", "properties": {"layer": "RD", "kind": "existing_road_edge"}, "geometry": {"type": "LineString", "coordinates": [[239.84600000001956, 646.3220000000438], [248.84499999997206, 652.2770000000019]]}}, {"type": "Feature", "properties": {"layer": "RD", "kind": "existing_road_edge"}, "geometry": {"type": "LineString", "coordinates": [[248.84499999997206, 652.2770000000019], [251.326999999932, 653.6870000000345]]}}, {"type": "Feature", "properties": {"layer": "RD", "kind": "existing_road_edge"}, "geometry": {"type": "LineString", "coordinates": [[251.326999999932, 653.6870000000345], [256.9899999999907, 656.4220000000205]]}}, {"type": "Feature", "properties": {"layer": "RD", "kind": "existing_road_edge"}, "geometry": {"type": "LineString", "coordinates": [[256.9899999999907, 656.4220000000205], [258.45699999993667, 657.0050000000047]]}}, {"type": "Feature", "properties": {"layer": "RD", "kind": "existing_road_edge"}, "geometry": {"type": "LineString", "coordinates": [[258.45699999993667, 657.0050000000047], [274.3630000000121, 663.4949999999953]]}}, {"type": "Feature", "properties": {"layer": "RD", "kind": "existing_road_edge"}, "geometry": {"type": "LineString", "coordinates": [[274.3630000000121, 663.4949999999953], [276.82600000000093, 664.6280000000261]]}}, {"type": "Feature", "properties": {"layer": "RD", "kind": "existing_road_edge"}, "geometry": {"type": "LineString", "coordinates": [[276.82600000000093, 664.6280000000261], [277.4329999999609, 664.7989999999991]]}}, {"type": "Feature", "properties": {"layer": "RD", "kind": "existing_road_edge"}, "geometry": {"type": "LineString", "coordinates": [[277.4329999999609, 664.7989999999991], [280.7260000000242, 665.6590000001015]]}}, {"type": "Feature", "properties": {"layer": "RD", "kind": "existing_road_edge"}, "geometry": {"type": "LineString", "coordinates": [[280.7260000000242, 665.6590000001015], [282.079000000027, 665.8800000000047]]}}, {"type": "Feature", "properties": {"layer": "RD", "kind": "existing_road_edge"}, "geometry": {"type": "LineString", "coordinates": [[282.079000000027, 665.8800000000047], [288.9749999999767, 668.0740000000224]]}}, {"type": "Feature", "properties": {"layer": "RD", "kind": "existing_road_edge"}, "geometry": {"type": "LineString", "coordinates": [[288.9749999999767, 668.0740000000224], [305.329000000027, 673.2390000000596]]}}, {"type": "Feature", "properties": {"layer": "RD", "kind": "existing_road_edge"}, "geometry": {"type": "LineString", "coordinates": [[291.1699999999255, 654.390000000014], [282.81299999996554, 651.5750000000698]]}}, {"type": "Feature", "properties": {"layer": "RD", "kind": "existing_road_edge"}, "geometry": {"type": "LineString", "coordinates": [[282.81299999996554, 651.5750000000698], [278.0540000000037, 649.890000000014]]}}, {"type": "Feature", "properties": {"layer": "RD", "kind": "existing_road_edge"}, "geometry": {"type": "LineString", "coordinates": [[278.0540000000037, 649.890000000014], [270.16399999998976, 647.0050000000047]]}}, {"type": "Feature", "properties": {"layer": "RD", "kind": "existing_road_edge"}, "geometry": {"type": "LineString", "coordinates": [[305.329000000027, 673.2390000000596], [320.829000000027, 675.9960000000428]]}}, {"type": "Feature", "properties": {"layer": "RD", "kind": "existing_road_edge"}, "geometry": {"type": "LineString", "coordinates": [[320.829000000027, 675.9960000000428], [323.88199999998324, 676.502000000095]]}}, {"type": "Feature", "properties": {"layer": "RD", "kind": "existing_road_edge"}, "geometry": {"type": "LineString", "coordinates": [[323.88199999998324, 676.502000000095], [334.3090000000084, 678.5600000000559]]}}, {"type": "Feature", "properties": {"layer": "RD", "kind": "existing_road_edge"}, "geometry": {"type": "LineString", "coordinates": [[334.3090000000084, 678.5600000000559], [347.26599999994505, 679.7380000000121]]}}, {"type": "Feature", "properties": {"layer": "RD", "kind": "existing_road_edge"}, "geometry": {"type": "LineString", "coordinates": [[347.26599999994505, 679.7380000000121], [351.7820000000065, 679.8090000000084]]}}, {"type": "Feature", "properties": {"layer": "RD", "kind": "existing_road_edge"}, "geometry": {"type": "LineString", "coordinates": [[351.7820000000065, 679.8090000000084], [358.60899999993853, 679.8120000000345]]}}, {"type": "Feature", "properties": {"layer": "RD", "kind": "existing_road_edge"}, "geometry": {"type": "LineString", "coordinates": [[358.60899999993853, 679.8120000000345], [361.51599999994505, 679.4980000000214]]}}, {"type": "Feature", "properties": {"layer": "RD", "kind": "existing_road_edge"}, "geometry": {"type": "LineString", "coordinates": [[361.51599999994505, 679.4980000000214], [361.55200000002515, 678.9780000000028]]}}, {"type": "Feature", "properties": {"layer": "RD", "kind": "existing_road_edge"}, "geometry": {"type": "LineString", "coordinates": [[361.55200000002515, 678.9780000000028], [367.11999999999534, 678.6909999999916]]}}, {"type": "Feature", "properties": {"layer": "RD", "kind": "existing_road_edge"}, "geometry": {"type": "LineString", "coordinates": [[367.11999999999534, 678.6909999999916], [375.76899999997113, 678.1060000000289]]}}, {"type": "Feature", "properties": {"layer": "RD", "kind": "existing_road_edge"}, "geometry": {"type": "LineString", "coordinates": [[375.76899999997113, 678.1060000000289], [382.65500000002794, 677.8840000000782]]}}, {"type": "Feature", "properties": {"layer": "RD", "kind": "existing_road_edge"}, "geometry": {"type": "LineString", "coordinates": [[382.65500000002794, 677.8840000000782], [394.280999999959, 677.2430000000168]]}}, {"type": "Feature", "properties": {"layer": "RD", "kind": "existing_road_edge"}, "geometry": {"type": "LineString", "coordinates": [[394.280999999959, 677.2430000000168], [394.54200000001583, 681.2090000000317]]}}, {"type": "Feature", "properties": {"layer": "RD", "kind": "existing_road_edge"}, "geometry": {"type": "LineString", "coordinates": [[399.18799999996554, 683.5100000000093], [398.7060000000056, 676.1850000000559]]}}, {"type": "Feature", "properties": {"layer": "RD", "kind": "existing_road_edge"}, "geometry": {"type": "LineString", "coordinates": [[398.7060000000056, 676.1850000000559], [402.2269999999553, 675.0900000000838]]}}, {"type": "Feature", "properties": {"layer": "RD", "kind": "existing_road_edge"}, "geometry": {"type": "LineString", "coordinates": [[402.2269999999553, 675.0900000000838], [409.8179999999702, 673.3040000000037]]}}, {"type": "Feature", "properties": {"layer": "RD", "kind": "existing_road_edge"}, "geometry": {"type": "LineString", "coordinates": [[409.8179999999702, 673.3040000000037], [418.78999999992084, 670.9120000000112]]}}, {"type": "Feature", "properties": {"layer": "RD", "kind": "existing_road_edge"}, "geometry": {"type": "LineString", "coordinates": [[420.5395926438505, 653.1838460663566], [403.57400000002235, 659.362000000081]]}}, {"type": "Feature", "properties": {"layer": "RD", "kind": "existing_road_edge"}, "geometry": {"type": "LineString", "coordinates": [[403.57400000002235, 659.362000000081], [400.18799999996554, 660.2210000000196]]}}, {"type": "Feature", "properties": {"layer": "RD", "kind": "existing_road_edge"}, "geometry": {"type": "LineString", "coordinates": [[400.18799999996554, 660.2210000000196], [394.70699999993667, 661.6570000000065]]}}, {"type": "Feature", "properties": {"layer": "RD", "kind": "existing_road_edge"}, "geometry": {"type": "LineString", "coordinates": [[394.70699999993667, 661.6570000000065], [390.6269999999786, 662.7120000000577]]}}, {"type": "Feature", "properties": {"layer": "RD", "kind": "existing_road_edge"}, "geometry": {"type": "LineString", "coordinates": [[390.6269999999786, 662.7120000000577], [384.2739999999758, 663.658000000054]]}}, {"type": "Feature", "properties": {"layer": "RD", "kind": "existing_road_edge"}, "geometry": {"type": "LineString", "coordinates": [[142.4889999999432, 307.57600000000093], [140.46699999994598, 307.9409999999916]]}}, {"type": "Feature", "properties": {"layer": "RD", "kind": "existing_road_edge"}, "geometry": {"type": "LineString", "coordinates": [[140.45900000003166, 307.9580000001006], [127.15000000002328, 314.7880000000587]]}}, {"type": "Feature", "properties": {"layer": "RD", "kind": "existing_road_edge"}, "geometry": {"type": "LineString", "coordinates": [[126.22499999997672, 312.9070000000065], [132.79299999994691, 309.29300000006333]]}}, {"type": "Feature", "properties": {"layer": "RD", "kind": "existing_road_edge"}, "geometry": {"type": "LineString", "coordinates": [[132.79299999994691, 309.29300000006333], [135.26399999996647, 307.97100000001956]]}}, {"type": "Feature", "properties": {"layer": "RD", "kind": "existing_road_edge"}, "geometry": {"type": "LineString", "coordinates": [[135.26399999996647, 307.97100000001956], [136.84199999994598, 307.1840000000084]]}}, {"type": "Feature", "properties": {"layer": "RD", "kind": "existing_road_edge"}, "geometry": {"type": "LineString", "coordinates": [[136.84199999994598, 307.1840000000084], [136.98399999993853, 304.29200000001583]]}}, {"type": "Feature", "properties": {"layer": "RD", "kind": "existing_road_edge"}, "geometry": {"type": "LineString", "coordinates": [[139.24599999992643, 303.3880000000354], [139.9639999999199, 306.24600000004284]]}}, {"type": "Feature", "properties": {"layer": "RD", "kind": "existing_road_edge"}, "geometry": {"type": "LineString", "coordinates": [[139.9639999999199, 306.24600000004284], [141.89500000001863, 305.3740000000689]]}}, {"type": "Feature", "properties": {"layer": "RD", "kind": "existing_road_edge"}, "geometry": {"type": "LineString", "coordinates": [[141.89500000001863, 305.3740000000689], [159.39000000001397, 296.51900000008754]]}}, {"type": "Feature", "properties": {"layer": "RD", "kind": "existing_road_edge"}, "geometry": {"type": "LineString", "coordinates": [[159.39000000001397, 296.51900000008754], [168.27599999995437, 292.1460000000661]]}}, {"type": "Feature", "properties": {"layer": "RD", "kind": "existing_road_edge"}, "geometry": {"type": "LineString", "coordinates": [[168.27599999995437, 292.1460000000661], [171.16599999996834, 290.3390000000363]]}}, {"type": "Feature", "properties": {"layer": "RD", "kind": "existing_road_edge"}, "geometry": {"type": "LineString", "coordinates": [[171.16599999996834, 290.3390000000363], [183.93799999996554, 284.49300000001676]]}}, {"type": "Feature", "properties": {"layer": "RD", "kind": "existing_road_edge"}, "geometry": {"type": "LineString", "coordinates": [[302.0799999999581, 657.6780000000726], [310.92599999997765, 659.6310000000522]]}}, {"type": "Feature", "properties": {"layer": "RD", "kind": "existing_road_edge"}, "geometry": {"type": "LineString", "coordinates": [[310.92599999997765, 659.6310000000522], [320.826999999932, 662.0760000000009]]}}, {"type": "Feature", "properties": {"layer": "RD", "kind": "existing_road_edge"}, "geometry": {"type": "LineString", "coordinates": [[320.826999999932, 662.0760000000009], [326.09799999999814, 663.0169999999925]]}}, {"type": "Feature", "properties": {"layer": "RD", "kind": "existing_road_edge"}, "geometry": {"type": "LineString", "coordinates": [[326.09799999999814, 663.0169999999925], [332.98300000000745, 664.0389999999898]]}}, {"type": "Feature", "properties": {"layer": "DR", "kind": "drain"}, "geometry": {"type": "LineString", "coordinates": [[269.9179999999469, 648.0800000000745], [269.5810000000056, 648.9480000000913]]}}, {"type": "Feature", "properties": {"layer": "DR", "kind": "drain"}, "geometry": {"type": "LineString", "coordinates": [[269.5810000000056, 648.9480000000913], [265.7750000000233, 647.4130000000587]]}}, {"type": "Feature", "properties": {"layer": "DR", "kind": "drain"}, "geometry": {"type": "LineString", "coordinates": [[265.7750000000233, 647.4130000000587], [261.12899999995716, 645.3350000000792]]}}, {"type": "Feature", "properties": {"layer": "DR", "kind": "drain"}, "geometry": {"type": "LineString", "coordinates": [[261.12899999995716, 645.3350000000792], [257.5139999999665, 643.5160000000615]]}}, {"type": "Feature", "properties": {"layer": "DR", "kind": "drain"}, "geometry": {"type": "LineString", "coordinates": [[257.5139999999665, 643.5160000000615], [254.8279999999795, 642.0230000000447]]}}, {"type": "Feature", "properties": {"layer": "DR", "kind": "drain"}, "geometry": {"type": "LineString", "coordinates": [[254.8279999999795, 642.0230000000447], [251.576999999932, 639.9679999999935]]}}, {"type": "Feature", "properties": {"layer": "DR", "kind": "drain"}, "geometry": {"type": "LineString", "coordinates": [[251.576999999932, 639.9679999999935], [246.9549999999581, 636.75]]}}, {"type": "Feature", "properties": {"layer": "DR", "kind": "drain"}, "geometry": {"type": "LineString", "coordinates": [[246.9549999999581, 636.75], [244.15000000002328, 634.6110000000335]]}}, {"type": "Feature", "properties": {"layer": "DR", "kind": "drain"}, "geometry": {"type": "LineString", "coordinates": [[244.15000000002328, 634.6110000000335], [239.46100000001024, 630.908000000054]]}}, {"type": "Feature", "properties": {"layer": "DR", "kind": "drain"}, "geometry": {"type": "LineString", "coordinates": [[239.46100000001024, 630.908000000054], [238.66700000001583, 630.2330000000075]]}}, {"type": "Feature", "properties": {"layer": "DR", "kind": "drain"}, "geometry": {"type": "LineString", "coordinates": [[238.66700000001583, 630.2330000000075], [232.52500000002328, 625.3280000000959]]}}, {"type": "Feature", "properties": {"layer": "DR", "kind": "drain"}, "geometry": {"type": "LineString", "coordinates": [[232.52500000002328, 625.3280000000959], [229.64199999999255, 623.0560000000987]]}}, {"type": "Feature", "properties": {"layer": "DR", "kind": "drain"}, "geometry": {"type": "LineString", "coordinates": [[229.64199999999255, 623.0560000000987], [226.28700000001118, 620.3340000000317]]}}, {"type": "Feature", "properties": {"layer": "DR", "kind": "drain"}, "geometry": {"type": "LineString", "coordinates": [[226.28700000001118, 620.3340000000317], [223.0779999999795, 617.8159999999916]]}}, {"type": "Feature", "properties": {"layer": "DR", "kind": "drain"}, "geometry": {"type": "LineString", "coordinates": [[223.0779999999795, 617.8159999999916], [219.15399999998044, 614.7669999999925]]}}, {"type": "Feature", "properties": {"layer": "DR", "kind": "drain"}, "geometry": {"type": "LineString", "coordinates": [[219.15399999998044, 614.7669999999925], [216.43699999991804, 612.7030000000959]]}}, {"type": "Feature", "properties": {"layer": "TF", "kind": "transformer"}, "geometry": {"type": "LineString", "coordinates": [[403.57400000002235, 659.3580000000075], [404.0549999999348, 661.4820000000764]]}}, {"type": "Feature", "properties": {"layer": "TF", "kind": "transformer"}, "geometry": {"type": "LineString", "coordinates": [[404.0549999999348, 661.4820000000764], [400.67399999999907, 662.2170000000624]]}}, {"type": "Feature", "properties": {"layer": "TF", "kind": "transformer"}, "geometry": {"type": "LineString", "coordinates": [[400.67399999999907, 662.2170000000624], [400.1790000000037, 660.2129999999888]]}}, {"type": "Feature", "properties": {"layer": "RD", "kind": "existing_road_edge"}, "geometry": {"type": "LineString", "coordinates": [[291.1699999999255, 654.390000000014], [302.0799999999581, 657.6780000000726]]}}, {"type": "Feature", "properties": {"layer": "RD", "kind": "existing_road_edge"}, "geometry": {"type": "LineString", "coordinates": [[377.93599999998696, 664.1500000000233], [384.2739999999758, 663.658000000054]]}}, {"type": "Feature", "properties": {"layer": "RD", "kind": "existing_road_edge"}, "geometry": {"type": "LineString", "coordinates": [[38.81099999998696, 168.04000000003725], [38.436999999918044, 164.85800000000745]]}}, {"type": "Feature", "properties": {"layer": "RD", "kind": "existing_road_edge"}, "geometry": {"type": "LineString", "coordinates": [[38.436999999918044, 164.85800000000745], [38.11399999994319, 161.84600000001956]]}}, {"type": "Feature", "properties": {"layer": "RD", "kind": "existing_road_edge"}, "geometry": {"type": "LineString", "coordinates": [[32.5, 160.58500000007916], [32.961000000010245, 168.2719999999972]]}}, {"type": "Feature", "properties": {"layer": "RD", "kind": "existing_road_edge"}, "geometry": {"type": "LineString", "coordinates": [[32.961000000010245, 168.2719999999972], [33.288999999989755, 171.2850000000326]]}}, {"type": "Feature", "properties": {"layer": "RD", "kind": "existing_road_edge"}, "geometry": {"type": "LineString", "coordinates": [[33.288999999989755, 171.2850000000326], [35.021999999997206, 187.4220000000205]]}}, {"type": "Feature", "properties": {"layer": "RD", "kind": "existing_road_edge"}, "geometry": {"type": "LineString", "coordinates": [[35.021999999997206, 187.4220000000205], [36.20299999997951, 202.59500000008848]]}}, {"type": "Feature", "properties": {"layer": "RD", "kind": "existing_road_edge"}, "geometry": {"type": "LineString", "coordinates": [[36.20299999997951, 202.59500000008848], [36.584000000031665, 206.9899999999907]]}}, {"type": "Feature", "properties": {"layer": "RD", "kind": "existing_road_edge"}, "geometry": {"type": "LineString", "coordinates": [[36.584000000031665, 206.9899999999907], [37.98100000002887, 212.02600000007078]]}}, {"type": "Feature", "properties": {"layer": "RD", "kind": "existing_road_edge"}, "geometry": {"type": "LineString", "coordinates": [[37.98100000002887, 212.02600000007078], [47.07799999997951, 217.08900000003632]]}}, {"type": "Feature", "properties": {"layer": "RD", "kind": "existing_road_edge"}, "geometry": {"type": "LineString", "coordinates": [[47.07799999997951, 217.08900000003632], [47.83100000000559, 222.06100000010338]]}}, {"type": "Feature", "properties": {"layer": "RD", "kind": "existing_road_edge"}, "geometry": {"type": "LineString", "coordinates": [[54.165999999968335, 221.93500000005588], [50.95199999993201, 211.20800000010058]]}}, {"type": "Feature", "properties": {"layer": "RD", "kind": "existing_road_edge"}, "geometry": {"type": "LineString", "coordinates": [[50.95199999993201, 211.20800000010058], [50.521999999997206, 211.11700000008568]]}}, {"type": "Feature", "properties": {"layer": "RD", "kind": "existing_road_edge"}, "geometry": {"type": "LineString", "coordinates": [[50.521999999997206, 211.11700000008568], [45.3179999999702, 204.9800000000978]]}}, {"type": "Feature", "properties": {"layer": "RD", "kind": "existing_road_edge"}, "geometry": {"type": "LineString", "coordinates": [[45.3179999999702, 204.9800000000978], [43.17499999993015, 201.10000000009313]]}}, {"type": "Feature", "properties": {"layer": "RD", "kind": "existing_road_edge"}, "geometry": {"type": "LineString", "coordinates": [[43.17499999993015, 201.10000000009313], [42.03999999992084, 195.79200000001583]]}}, {"type": "Feature", "properties": {"layer": "RD", "kind": "existing_road_edge"}, "geometry": {"type": "LineString", "coordinates": [[111.63000000000466, 104.23200000007637], [111.35114873305429, 105.33965962054208]]}}, {"type": "Feature", "properties": {"layer": "RD", "kind": "existing_road_edge"}, "geometry": {"type": "LineString", "coordinates": [[111.35114873305429, 105.33965962054208], [78.34485395986121, 107.88637283886783]]}}, {"type": "Feature", "properties": {"layer": "RD", "kind": "existing_road_edge"}, "geometry": {"type": "LineString", "coordinates": [[92.94615416403394, 101.42218811798375], [109.644233157509, 99.73775065445807]]}}, {"type": "Feature", "properties": {"layer": "RD", "kind": "existing_road_edge"}, "geometry": {"type": "LineString", "coordinates": [[109.644233157509, 99.73775065445807], [110.06980149296578, 99.34868344420101]]}}, {"type": "Feature", "properties": {"layer": "RD", "kind": "existing_road_edge"}, "geometry": {"type": "LineString", "coordinates": [[110.0899999999674, 99.36999999999534], [109.62099999992643, 96.40500000002794]]}}, {"type": "Feature", "properties": {"layer": "RD", "kind": "existing_road_edge"}, "geometry": {"type": "LineString", "coordinates": [[114.73300000000745, 94.44800000009127], [115.90299999993294, 98.74100000003818]]}}, {"type": "Feature", "properties": {"layer": "RD", "kind": "existing_road_edge"}, "geometry": {"type": "LineString", "coordinates": [[115.90299999993294, 98.74100000003818], [116.3070000000298, 98.98800000001211]]}}, {"type": "Feature", "properties": {"layer": "RD", "kind": "existing_road_edge"}, "geometry": {"type": "LineString", "coordinates": [[116.3070000000298, 98.98800000001211], [139.28000000002794, 96.92300000006799]]}}, {"type": "Feature", "properties": {"layer": "RD", "kind": "existing_road_edge"}, "geometry": {"type": "LineString", "coordinates": [[139.28000000002794, 96.92300000006799], [143.49699999997392, 96.56500000006054]]}}, {"type": "Feature", "properties": {"layer": "RD", "kind": "existing_road_edge"}, "geometry": {"type": "LineString", "coordinates": [[143.49699999997392, 96.56500000006054], [150.29999999993015, 95.99700000009034]]}}, {"type": "Feature", "properties": {"layer": "RD", "kind": "existing_road_edge"}, "geometry": {"type": "LineString", "coordinates": [[150.29999999993015, 95.99700000009034], [150.2719999999972, 95.63400000007823]]}}, {"type": "Feature", "properties": {"layer": "RD", "kind": "existing_road_edge"}, "geometry": {"type": "LineString", "coordinates": [[150.2719999999972, 95.63400000007823], [162.0679999999702, 92.46900000004098]]}}, {"type": "Feature", "properties": {"layer": "RD", "kind": "existing_road_edge"}, "geometry": {"type": "LineString", "coordinates": [[162.0679999999702, 92.46900000004098], [174.00599999993574, 88.08400000003166]]}}, {"type": "Feature", "properties": {"layer": "RD", "kind": "existing_road_edge"}, "geometry": {"type": "LineString", "coordinates": [[174.00599999993574, 88.08400000003166], [185.3739999999525, 84.13900000008289]]}}, {"type": "Feature", "properties": {"layer": "RD", "kind": "existing_road_edge"}, "geometry": {"type": "LineString", "coordinates": [[185.3739999999525, 84.13900000008289], [199.2399999999907, 79.68000000005122]]}}, {"type": "Feature", "properties": {"layer": "RD", "kind": "existing_road_edge"}, "geometry": {"type": "LineString", "coordinates": [[199.2399999999907, 79.68000000005122], [204.1579999999376, 76.91899999999441]]}}, {"type": "Feature", "properties": {"layer": "RD", "kind": "existing_road_edge"}, "geometry": {"type": "LineString", "coordinates": [[204.1579999999376, 76.91899999999441], [230.38933815376367, 67.0750204497017]]}}, {"type": "Feature", "properties": {"layer": "RD", "kind": "existing_road_edge"}, "geometry": {"type": "LineString", "coordinates": [[329.4429999999702, 38.24400000006426], [336.9529999999795, 40.207000000053085]]}}, {"type": "Feature", "properties": {"layer": "RD", "kind": "existing_road_edge"}, "geometry": {"type": "LineString", "coordinates": [[336.9529999999795, 40.207000000053085], [344.80200000002515, 42.538999999989755]]}}, {"type": "Feature", "properties": {"layer": "RD", "kind": "existing_road_edge"}, "geometry": {"type": "LineString", "coordinates": [[344.80200000002515, 42.538999999989755], [353.0339999999851, 45.942000000039116]]}}, {"type": "Feature", "properties": {"layer": "RD", "kind": "existing_road_edge"}, "geometry": {"type": "LineString", "coordinates": [[353.0339999999851, 45.942000000039116], [361.0200000000186, 54.256000000052154]]}}, {"type": "Feature", "properties": {"layer": "RD", "kind": "existing_road_edge"}, "geometry": {"type": "LineString", "coordinates": [[361.0200000000186, 54.256000000052154], [348.83299999998417, 84.54800000006799]]}}, {"type": "Feature", "properties": {"layer": "RD", "kind": "existing_road_edge"}, "geometry": {"type": "LineString", "coordinates": [[348.83299999998417, 84.54800000006799], [347.4560000000056, 84.47600000002421]]}}, {"type": "Feature", "properties": {"layer": "RD", "kind": "existing_road_edge"}, "geometry": {"type": "LineString", "coordinates": [[347.4560000000056, 84.47600000002421], [360.2648420361802, 100.89119824382942]]}}, {"type": "Feature", "properties": {"layer": "RD", "kind": "existing_road_edge"}, "geometry": {"type": "LineString", "coordinates": [[489.9899999999907, 6.641000000061467], [470.1909999999916, 1.7650000000139698]]}}, {"type": "Feature", "properties": {"layer": "RD", "kind": "existing_road_edge"}, "geometry": {"type": "LineString", "coordinates": [[470.1909999999916, 1.7650000000139698], [462.16299999994226, -1.6609999999636784]]}}, {"type": "Feature", "properties": {"layer": "RD", "kind": "existing_road_edge"}, "geometry": {"type": "LineString", "coordinates": [[462.16299999994226, -1.6609999999636784], [453.18900000001304, -6.337999999988824]]}}, {"type": "Feature", "properties": {"layer": "RD", "kind": "existing_road_edge"}, "geometry": {"type": "LineString", "coordinates": [[453.18900000001304, -6.337999999988824], [446.72337632032577, -7.968229502788745]]}}, {"type": "Feature", "properties": {"layer": "RD", "kind": "existing_road_edge"}, "geometry": {"type": "LineString", "coordinates": [[446.72337632032577, -7.968229502788745], [447.1949999999488, -12.212999999988824]]}}, {"type": "Feature", "properties": {"layer": "RD", "kind": "existing_road_edge"}, "geometry": {"type": "LineString", "coordinates": [[442.29200000001583, -13.169999999925494], [441.2480000000214, -6.238999999943189]]}}, {"type": "Feature", "properties": {"layer": "RD", "kind": "existing_road_edge"}, "geometry": {"type": "LineString", "coordinates": [[441.2480000000214, -6.238999999943189], [440.57199999992736, 3.2730000000447035]]}}, {"type": "Feature", "properties": {"layer": "RD", "kind": "existing_road_edge"}, "geometry": {"type": "LineString", "coordinates": [[440.57199999992736, 3.2730000000447035], [440.0370000000112, 12.211000000010245]]}}, {"type": "Feature", "properties": {"layer": "RD", "kind": "existing_road_edge"}, "geometry": {"type": "LineString", "coordinates": [[440.0370000000112, 12.211000000010245], [434.1450000000186, 29.336000000010245]]}}, {"type": "Feature", "properties": {"layer": "RD", "kind": "existing_road_edge"}, "geometry": {"type": "LineString", "coordinates": [[434.1450000000186, 29.336000000010245], [433.6489999999758, 32.29700000002049]]}}, {"type": "Feature", "properties": {"layer": "RD", "kind": "existing_road_edge"}, "geometry": {"type": "LineString", "coordinates": [[433.6489999999758, 32.29700000002049], [429.0339999999851, 50.051000000094064]]}}, {"type": "Feature", "properties": {"layer": "RD", "kind": "existing_road_edge"}, "geometry": {"type": "LineString", "coordinates": [[429.0339999999851, 50.051000000094064], [428.13300000003073, 52.88699999998789]]}}, {"type": "Feature", "properties": {"layer": "RD", "kind": "existing_road_edge"}, "geometry": {"type": "LineString", "coordinates": [[428.13300000003073, 52.88699999998789], [426.82199999992736, 55.287000000011176]]}}, {"type": "Feature", "properties": {"layer": "RD", "kind": "existing_road_edge"}, "geometry": {"type": "LineString", "coordinates": [[426.82199999992736, 55.287000000011176], [424.6359999999404, 57.788999999989755]]}}, {"type": "Feature", "properties": {"layer": "RD", "kind": "existing_road_edge"}, "geometry": {"type": "LineString", "coordinates": [[424.6359999999404, 57.788999999989755], [422.09799999999814, 59.49900000006892]]}}, {"type": "Feature", "properties": {"layer": "RD", "kind": "existing_road_edge"}, "geometry": {"type": "LineString", "coordinates": [[422.09799999999814, 59.49900000006892], [413.9859999999171, 60.784000000101514]]}}, {"type": "Feature", "properties": {"layer": "RD", "kind": "existing_road_edge"}, "geometry": {"type": "LineString", "coordinates": [[413.9859999999171, 60.784000000101514], [395.03999999992084, 59.565000000060536]]}}, {"type": "Feature", "properties": {"layer": "RD", "kind": "existing_road_edge"}, "geometry": {"type": "LineString", "coordinates": [[395.03999999992084, 59.565000000060536], [392.57199999992736, 59.21500000008382]]}}, {"type": "Feature", "properties": {"layer": "RD", "kind": "existing_road_edge"}, "geometry": {"type": "LineString", "coordinates": [[392.57199999992736, 59.21500000008382], [385.2750000000233, 58.815000000060536]]}}, {"type": "Feature", "properties": {"layer": "RD", "kind": "existing_road_edge"}, "geometry": {"type": "LineString", "coordinates": [[385.2750000000233, 58.815000000060536], [379.6779999999562, 58.086000000010245]]}}, {"type": "Feature", "properties": {"layer": "RD", "kind": "existing_road_edge"}, "geometry": {"type": "LineString", "coordinates": [[379.6779999999562, 58.086000000010245], [373.9780000000028, 55.96900000004098]]}}, {"type": "Feature", "properties": {"layer": "RD", "kind": "existing_road_edge"}, "geometry": {"type": "LineString", "coordinates": [[373.9780000000028, 55.96900000004098], [364.28799999994226, 50.554000000003725]]}}, {"type": "Feature", "properties": {"layer": "RD", "kind": "existing_road_edge"}, "geometry": {"type": "LineString", "coordinates": [[364.28799999994226, 50.554000000003725], [351.1809999999823, 39.74700000009034]]}}, {"type": "Feature", "properties": {"layer": "RD", "kind": "existing_road_edge"}, "geometry": {"type": "LineString", "coordinates": [[351.1809999999823, 39.74700000009034], [341.03000000002794, 35.538999999989755]]}}, {"type": "Feature", "properties": {"layer": "RD", "kind": "existing_road_edge"}, "geometry": {"type": "LineString", "coordinates": [[341.03000000002794, 35.538999999989755], [339.8609999999171, 35.21200000005774]]}}, {"type": "Feature", "properties": {"layer": "RD", "kind": "existing_road_edge"}, "geometry": {"type": "LineString", "coordinates": [[339.8609999999171, 35.21200000005774], [332.8859999999404, 33.978000000002794]]}}, {"type": "Feature", "properties": {"layer": "RD", "kind": "existing_road_edge"}, "geometry": {"type": "LineString", "coordinates": [[332.8859999999404, 33.978000000002794], [323.06199999991804, 31.87100000004284]]}}, {"type": "Feature", "properties": {"layer": "RD", "kind": "existing_road_edge"}, "geometry": {"type": "LineString", "coordinates": [[323.06199999991804, 31.87100000004284], [303.51699999999255, 30.958000000100583]]}}, {"type": "Feature", "properties": {"layer": "RD", "kind": "existing_road_edge"}, "geometry": {"type": "LineString", "coordinates": [[303.51699999999255, 30.958000000100583], [294.71100000001024, 31.408000000054017]]}}, {"type": "Feature", "properties": {"layer": "RD", "kind": "existing_road_edge"}, "geometry": {"type": "LineString", "coordinates": [[294.71100000001024, 31.408000000054017], [283.56099999998696, 29.66600000008475]]}}, {"type": "Feature", "properties": {"layer": "RD", "kind": "existing_road_edge"}, "geometry": {"type": "LineString", "coordinates": [[283.56099999998696, 29.66600000008475], [273.42299999995157, 26.17399999999907]]}}, {"type": "Feature", "properties": {"layer": "RD", "kind": "existing_road_edge"}, "geometry": {"type": "LineString", "coordinates": [[273.42299999995157, 26.17399999999907], [264.4179999999469, 22.582000000053085]]}}, {"type": "Feature", "properties": {"layer": "RD", "kind": "existing_road_edge"}, "geometry": {"type": "LineString", "coordinates": [[264.4179999999469, 22.582000000053085], [263.3389999999199, 23.12300000002142]]}}, {"type": "Feature", "properties": {"layer": "RD", "kind": "existing_road_edge"}, "geometry": {"type": "LineString", "coordinates": [[263.3389999999199, 23.12300000002142], [245.88199999998324, 31.440000000060536]]}}, {"type": "Feature", "properties": {"layer": "RD", "kind": "existing_road_edge"}, "geometry": {"type": "LineString", "coordinates": [[245.88199999998324, 31.440000000060536], [242.5449999999255, 35.98100000002887]]}}, {"type": "Feature", "properties": {"layer": "RD", "kind": "existing_road_edge"}, "geometry": {"type": "LineString", "coordinates": [[242.5449999999255, 35.98100000002887], [241.26599999994505, 42.177000000025146]]}}, {"type": "Feature", "properties": {"layer": "RD", "kind": "existing_road_edge"}, "geometry": {"type": "LineString", "coordinates": [[241.26599999994505, 42.177000000025146], [239.76500000001397, 53.302000000025146]]}}, {"type": "Feature", "properties": {"layer": "RD", "kind": "existing_road_edge"}, "geometry": {"type": "LineString", "coordinates": [[239.76500000001397, 53.302000000025146], [238.9889999999432, 61.396000000066124]]}}, {"type": "Feature", "properties": {"layer": "RD", "kind": "existing_road_edge"}, "geometry": {"type": "LineString", "coordinates": [[238.9889999999432, 61.396000000066124], [238.4899999999907, 63.412000000011176]]}}, {"type": "Feature", "properties": {"layer": "RD", "kind": "existing_road_edge"}, "geometry": {"type": "LineString", "coordinates": [[238.4899999999907, 63.412000000011176], [237.12300000002142, 64.93400000000838]]}}, {"type": "Feature", "properties": {"layer": "RD", "kind": "existing_road_edge"}, "geometry": {"type": "LineString", "coordinates": [[237.12300000002142, 64.93400000000838], [235.39099999994505, 65.69900000002235]]}}, {"type": "Feature", "properties": {"layer": "RD", "kind": "existing_road_edge"}, "geometry": {"type": "LineString", "coordinates": [[235.39099999994505, 65.69900000002235], [233.2060000000056, 66.3640000000596]]}}, {"type": "Feature", "properties": {"layer": "RD", "kind": "existing_road_edge"}, "geometry": {"type": "LineString", "coordinates": [[233.2060000000056, 66.3640000000596], [230.38933815376367, 67.0750204497017]]}}, {"type": "Feature", "properties": {"layer": "RD", "kind": "existing_road_edge"}, "geometry": {"type": "LineString", "coordinates": [[502.5910000000149, 9.735000000102445], [521.9660000000149, 15.633000000030734]]}}, {"type": "Feature", "properties": {"layer": "RD", "kind": "existing_road_edge"}, "geometry": {"type": "LineString", "coordinates": [[521.9660000000149, 15.633000000030734], [525.484999999986, 16.844000000040978]]}}, {"type": "Feature", "properties": {"layer": "RD", "kind": "existing_road_edge"}, "geometry": {"type": "LineString", "coordinates": [[525.484999999986, 16.844000000040978], [537.0449999999255, 19.25700000009965]]}}, {"type": "Feature", "properties": {"layer": "RD", "kind": "existing_road_edge"}, "geometry": {"type": "LineString", "coordinates": [[537.0449999999255, 19.25700000009965], [557.0929999999935, 19.097999999998137]]}}, {"type": "Feature", "properties": {"layer": "RD", "kind": "existing_road_edge"}, "geometry": {"type": "LineString", "coordinates": [[557.0929999999935, 19.097999999998137], [572.0270000000019, 20.650000000023283]]}}, {"type": "Feature", "properties": {"layer": "RD", "kind": "existing_road_edge"}, "geometry": {"type": "LineString", "coordinates": [[572.0270000000019, 20.650000000023283], [574.8229999999749, 19.69800000009127]]}}, {"type": "Feature", "properties": {"layer": "RD", "kind": "existing_road_edge"}, "geometry": {"type": "LineString", "coordinates": [[574.8229999999749, 19.69800000009127], [586.5139999999665, 19.88800000003539]]}}, {"type": "Feature", "properties": {"layer": "RD", "kind": "existing_road_edge"}, "geometry": {"type": "LineString", "coordinates": [[597.9429999999702, 21.368000000016764], [613.7110000000102, 24.41800000006333]]}}, {"type": "Feature", "properties": {"layer": "RD", "kind": "existing_road_edge"}, "geometry": {"type": "LineString", "coordinates": [[613.7110000000102, 24.41800000006333], [614.2010000000009, 24.152000000001863]]}}, {"type": "Feature", "properties": {"layer": "RD", "kind": "existing_road_edge"}, "geometry": {"type": "LineString", "coordinates": [[614.2010000000009, 24.152000000001863], [614.5239999999758, 23.658000000054017]]}}, {"type": "Feature", "properties": {"layer": "RD", "kind": "existing_road_edge"}, "geometry": {"type": "LineString", "coordinates": [[614.5239999999758, 23.658000000054017], [615.920999999973, 17.203000000095926]]}}, {"type": "Feature", "properties": {"layer": "RD", "kind": "existing_road_edge"}, "geometry": {"type": "LineString", "coordinates": [[620.0989999999292, 18.644000000087544], [619.1979999999749, 23.53000000002794]]}}, {"type": "Feature", "properties": {"layer": "RD", "kind": "existing_road_edge"}, "geometry": {"type": "LineString", "coordinates": [[619.1979999999749, 23.53000000002794], [619.2149999999674, 23.975000000093132]]}}, {"type": "Feature", "properties": {"layer": "RD", "kind": "existing_road_edge"}, "geometry": {"type": "LineString", "coordinates": [[619.2149999999674, 23.975000000093132], [619.3979999999283, 24.46500000008382]]}}, {"type": "Feature", "properties": {"layer": "RD", "kind": "existing_road_edge"}, "geometry": {"type": "LineString", "coordinates": [[619.3979999999283, 24.46500000008382], [619.7339999999385, 24.87100000004284]]}}, {"type": "Feature", "properties": {"layer": "RD", "kind": "existing_road_edge"}, "geometry": {"type": "LineString", "coordinates": [[619.7339999999385, 24.87100000004284], [620.1749999999302, 25.17399999999907]]}}, {"type": "Feature", "properties": {"layer": "RD", "kind": "existing_road_edge"}, "geometry": {"type": "LineString", "coordinates": [[620.1749999999302, 25.17399999999907], [620.4549999999581, 25.227000000071712]]}}, {"type": "Feature", "properties": {"layer": "RD", "kind": "existing_road_edge"}, "geometry": {"type": "LineString", "coordinates": [[620.4549999999581, 25.227000000071712], [635.4510000000009, 27.110000000102445]]}}, {"type": "Feature", "properties": {"layer": "RD", "kind": "existing_road_edge"}, "geometry": {"type": "LineString", "coordinates": [[635.4510000000009, 27.110000000102445], [647.277999999933, 31.07500000006985]]}}, {"type": "Feature", "properties": {"layer": "RD", "kind": "existing_road_edge"}, "geometry": {"type": "LineString", "coordinates": [[647.277999999933, 31.07500000006985], [651.5399999999208, 32.550000000046566]]}}, {"type": "Feature", "properties": {"layer": "RD", "kind": "existing_road_edge"}, "geometry": {"type": "LineString", "coordinates": [[651.5399999999208, 32.550000000046566], [661.5829999999842, 35.127000000094995]]}}, {"type": "Feature", "properties": {"layer": "RD", "kind": "existing_road_edge"}, "geometry": {"type": "LineString", "coordinates": [[661.5829999999842, 35.127000000094995], [665.8519999999553, 35.63800000003539]]}}, {"type": "Feature", "properties": {"layer": "RD", "kind": "existing_road_edge"}, "geometry": {"type": "LineString", "coordinates": [[665.8519999999553, 35.63800000003539], [666.9440000000177, 35.644000000087544]]}}, {"type": "Feature", "properties": {"layer": "RD", "kind": "existing_road_edge"}, "geometry": {"type": "LineString", "coordinates": [[666.9440000000177, 35.644000000087544], [686.7229999999981, 43.802000000025146]]}}, {"type": "Feature", "properties": {"layer": "RD", "kind": "existing_road_edge"}, "geometry": {"type": "LineString", "coordinates": [[688.6659999999683, 49.66300000005867], [682.936999999918, 47.978000000002794]]}}, {"type": "Feature", "properties": {"layer": "RD", "kind": "existing_road_edge"}, "geometry": {"type": "LineString", "coordinates": [[682.936999999918, 47.978000000002794], [677.5749999999534, 46.728000000002794]]}}, {"type": "Feature", "properties": {"layer": "RD", "kind": "existing_road_edge"}, "geometry": {"type": "LineString", "coordinates": [[677.5749999999534, 46.728000000002794], [674.3429999999935, 45.44700000004377]]}}, {"type": "Feature", "properties": {"layer": "RD", "kind": "existing_road_edge"}, "geometry": {"type": "LineString", "coordinates": [[674.3429999999935, 45.44700000004377], [664.7079999999842, 40.595000000088476]]}}, {"type": "Feature", "properties": {"layer": "RD", "kind": "existing_road_edge"}, "geometry": {"type": "LineString", "coordinates": [[664.7079999999842, 40.595000000088476], [664.3959999999497, 40.59600000001956]]}}, {"type": "Feature", "properties": {"layer": "RD", "kind": "existing_road_edge"}, "geometry": {"type": "LineString", "coordinates": [[664.3959999999497, 40.59600000001956], [664.1829999999609, 40.75500000000466]]}}, {"type": "Feature", "properties": {"layer": "RD", "kind": "existing_road_edge"}, "geometry": {"type": "LineString", "coordinates": [[664.1829999999609, 40.75500000000466], [664.0570000000298, 40.98300000000745]]}}, {"type": "Feature", "properties": {"layer": "RD", "kind": "existing_road_edge"}, "geometry": {"type": "LineString", "coordinates": [[888.5659999999916, 301.3510000000242], [888.5640233727172, 293.32391445944086]]}}, {"type": "Feature", "properties": {"layer": "RD", "kind": "existing_road_edge"}, "geometry": {"type": "LineString", "coordinates": [[900.0411076041637, 286.3418969833292], [900.8149999999441, 299.2129999999888]]}}, {"type": "Feature", "properties": {"layer": "RD", "kind": "existing_road_edge"}, "geometry": {"type": "LineString", "coordinates": [[900.8149999999441, 299.2129999999888], [900.9880000000121, 300.4200000000419]]}}, {"type": "Feature", "properties": {"layer": "RD", "kind": "existing_road_edge"}, "geometry": {"type": "LineString", "coordinates": [[900.9880000000121, 300.4200000000419], [900.35699999996, 319.6810000000987]]}}, {"type": "Feature", "properties": {"layer": "RD", "kind": "existing_road_edge"}, "geometry": {"type": "LineString", "coordinates": [[900.35699999996, 319.6810000000987], [899.841999999946, 337.6600000000326]]}}, {"type": "Feature", "properties": {"layer": "RD", "kind": "existing_road_edge"}, "geometry": {"type": "LineString", "coordinates": [[899.841999999946, 337.6600000000326], [903.0069999999832, 337.502000000095]]}}, {"type": "Feature", "properties": {"layer": "RD", "kind": "existing_road_edge"}, "geometry": {"type": "LineString", "coordinates": [[904.0059999999357, 341.9760000000242], [899.3850000000093, 342.6350000000093]]}}, {"type": "Feature", "properties": {"layer": "RD", "kind": "existing_road_edge"}, "geometry": {"type": "LineString", "coordinates": [[899.3850000000093, 342.6350000000093], [899.4120000000112, 348.99700000009034]]}}, {"type": "Feature", "properties": {"layer": "RD", "kind": "existing_road_edge"}, "geometry": {"type": "LineString", "coordinates": [[899.4120000000112, 348.99700000009034], [899.3969999999972, 356.77800000004936]]}}, {"type": "Feature", "properties": {"layer": "RD", "kind": "existing_road_edge"}, "geometry": {"type": "LineString", "coordinates": [[899.3969999999972, 356.77800000004936], [899.545999999973, 356.86999999999534]]}}, {"type": "Feature", "properties": {"layer": "RD", "kind": "existing_road_edge"}, "geometry": {"type": "LineString", "coordinates": [[899.545999999973, 356.86999999999534], [899.7149999999674, 368.2870000000112]]}}, {"type": "Feature", "properties": {"layer": "RD", "kind": "existing_road_edge"}, "geometry": {"type": "LineString", "coordinates": [[889.1689999999944, 368.98500000010245], [888.7800000000279, 357.6040000000503]]}}, {"type": "Feature", "properties": {"layer": "RD", "kind": "existing_road_edge"}, "geometry": {"type": "LineString", "coordinates": [[253.43299999996088, 207.73400000005495], [240.78799999994226, 189.0470000000205]]}}, {"type": "Feature", "properties": {"layer": "RD", "kind": "existing_road_edge"}, "geometry": {"type": "LineString", "coordinates": [[240.78799999994226, 189.0470000000205], [236.53630178119056, 182.10545537248254]]}}, {"type": "Feature", "properties": {"layer": "RD", "kind": "existing_road_edge"}, "geometry": {"type": "LineString", "coordinates": [[262.3549999999814, 220.6610000000801], [272.1219999999739, 235.7050000000745]]}}, {"type": "Feature", "properties": {"layer": "RD", "kind": "existing_road_edge"}, "geometry": {"type": "LineString", "coordinates": [[272.1219999999739, 235.7050000000745], [282.33499999996275, 256.7700000000186]]}}, {"type": "Feature", "properties": {"layer": "RD", "kind": "existing_road_edge"}, "geometry": {"type": "LineString", "coordinates": [[282.33499999996275, 256.7700000000186], [287.93699999991804, 270.79100000008475]]}}, {"type": "Feature", "properties": {"layer": "RD", "kind": "existing_road_edge"}, "geometry": {"type": "LineString", "coordinates": [[287.93699999991804, 270.79100000008475], [291.9109999999637, 281.94800000009127]]}}, {"type": "Feature", "properties": {"layer": "RD", "kind": "existing_road_edge"}, "geometry": {"type": "LineString", "coordinates": [[291.9109999999637, 281.94800000009127], [298.2719999999972, 299.3310000000056]]}}, {"type": "Feature", "properties": {"layer": "RD", "kind": "existing_road_edge"}, "geometry": {"type": "LineString", "coordinates": [[298.2719999999972, 299.3310000000056], [301.2859999999637, 306.28000000002794]]}}, {"type": "Feature", "properties": {"layer": "RD", "kind": "existing_road_edge"}, "geometry": {"type": "LineString", "coordinates": [[301.2859999999637, 306.28000000002794], [312.08499999996275, 323.3950000000186]]}}, {"type": "Feature", "properties": {"layer": "RD", "kind": "existing_road_edge"}, "geometry": {"type": "LineString", "coordinates": [[312.08499999996275, 323.3950000000186], [324.8310000000056, 342.204000000027]]}}, {"type": "Feature", "properties": {"layer": "RD", "kind": "existing_road_edge"}, "geometry": {"type": "LineString", "coordinates": [[341.1934206945589, 355.5983092758106], [354.28999999992084, 361.5610000001034]]}}, {"type": "Feature", "properties": {"layer": "RD", "kind": "existing_road_edge"}, "geometry": {"type": "LineString", "coordinates": [[354.28999999992084, 361.5610000001034], [379.2929999999469, 379.97100000001956]]}}, {"type": "Feature", "properties": {"layer": "RD", "kind": "existing_road_edge"}, "geometry": {"type": "LineString", "coordinates": [[400.14199999999255, 393.72200000006706], [400.14299999992363, 393.737000000081]]}}, {"type": "Feature", "properties": {"layer": "RD", "kind": "existing_road_edge"}, "geometry": {"type": "LineString", "coordinates": [[400.14299999992363, 393.737000000081], [392.1280000000261, 387.36900000006426]]}}, {"type": "Feature", "properties": {"layer": "RD", "kind": "existing_road_edge"}, "geometry": {"type": "LineString", "coordinates": [[392.1280000000261, 387.36900000006426], [386.2119999999413, 381.252000000095]]}}, {"type": "Feature", "properties": {"layer": "RD", "kind": "existing_road_edge"}, "geometry": {"type": "LineString", "coordinates": [[386.2119999999413, 381.252000000095], [381.30999999993946, 376.50600000005215]]}}, {"type": "Feature", "properties": {"layer": "RD", "kind": "existing_road_edge"}, "geometry": {"type": "LineString", "coordinates": [[381.30999999993946, 376.50600000005215], [374.80999999993946, 369.4890000000596]]}}, {"type": "Feature", "properties": {"layer": "RD", "kind": "existing_road_edge"}, "geometry": {"type": "LineString", "coordinates": [[374.80999999993946, 369.4890000000596], [367.72100000001956, 362.7129999999888]]}}, {"type": "Feature", "properties": {"layer": "RD", "kind": "existing_road_edge"}, "geometry": {"type": "LineString", "coordinates": [[367.72100000001956, 362.7129999999888], [357.5329999999376, 355.19000000006054]]}}, {"type": "Feature", "properties": {"layer": "RD", "kind": "existing_road_edge"}, "geometry": {"type": "LineString", "coordinates": [[357.5329999999376, 355.19000000006054], [343.11800000001676, 350.3630000000121]]}}, {"type": "Feature", "properties": {"layer": "RD", "kind": "existing_road_edge"}, "geometry": {"type": "LineString", "coordinates": [[343.11800000001676, 350.3630000000121], [326.6218767929822, 338.4130797451362]]}}, {"type": "Feature", "properties": {"layer": "RD", "kind": "existing_road_edge"}, "geometry": {"type": "LineString", "coordinates": [[244.76599999994505, 69.22700000007171], [243.65434354171157, 74.42938919935841]]}}, {"type": "Feature", "properties": {"layer": "RD", "kind": "existing_road_edge"}, "geometry": {"type": "LineString", "coordinates": [[243.65434354171157, 74.42938919935841], [239.7298819605494, 95.45957659650594]]}}, {"type": "Feature", "properties": {"layer": "RD", "kind": "existing_road_edge"}, "geometry": {"type": "LineString", "coordinates": [[239.7298819605494, 95.45957659650594], [239.7298819605494, 95.45957659650594]]}}, {"type": "Feature", "properties": {"layer": "RD", "kind": "existing_road_edge"}, "geometry": {"type": "LineString", "coordinates": [[239.7298819605494, 95.45957659650594], [251.4313804623671, 100.25117603689432]]}}, {"type": "Feature", "properties": {"layer": "RD", "kind": "existing_road_edge"}, "geometry": {"type": "LineString", "coordinates": [[249.87059672444593, 104.10254784452263], [238.72558216296602, 99.86801470723003]]}}, {"type": "Feature", "properties": {"layer": "RD", "kind": "existing_road_edge"}, "geometry": {"type": "LineString", "coordinates": [[238.72558216296602, 99.86801470723003], [235.24771647283342, 104.52152149926405]]}}, {"type": "Feature", "properties": {"layer": "RD", "kind": "existing_road_edge"}, "geometry": {"type": "LineString", "coordinates": [[235.24771647283342, 104.52152149926405], [231.34185234317556, 111.2519400921883]]}}, {"type": "Feature", "properties": {"layer": "RD", "kind": "existing_road_edge"}, "geometry": {"type": "LineString", "coordinates": [[231.34185234317556, 111.2519400921883], [230.788396407268, 120.2812274027383]]}}, {"type": "Feature", "properties": {"layer": "RD", "kind": "existing_road_edge"}, "geometry": {"type": "LineString", "coordinates": [[230.788396407268, 120.2812274027383], [229.14911696012132, 129.1840832226444]]}}, {"type": "Feature", "properties": {"layer": "RD", "kind": "existing_road_edge"}, "geometry": {"type": "LineString", "coordinates": [[229.14911696012132, 129.1840832226444], [228.98951244330965, 132.15611178148538]]}}, {"type": "Feature", "properties": {"layer": "RD", "kind": "existing_road_edge"}, "geometry": {"type": "LineString", "coordinates": [[228.98951244330965, 132.15611178148538], [229.30905301962048, 137.07384764496237]]}}, {"type": "Feature", "properties": {"layer": "RD", "kind": "existing_road_edge"}, "geometry": {"type": "LineString", "coordinates": [[229.30905301962048, 137.07384764496237], [230.9383809256833, 142.6184400850907]]}}, {"type": "Feature", "properties": {"layer": "RD", "kind": "existing_road_edge"}, "geometry": {"type": "LineString", "coordinates": [[230.9383809256833, 142.6184400850907], [232.79757583595347, 155.6117772880243]]}}, {"type": "Feature", "properties": {"layer": "RD", "kind": "existing_road_edge"}, "geometry": {"type": "LineString", "coordinates": [[232.79757583595347, 155.6117772880243], [232.98918467748445, 165.97404491342604]]}}, {"type": "Feature", "properties": {"layer": "RD", "kind": "existing_road_edge"}, "geometry": {"type": "LineString", "coordinates": [[232.98918467748445, 165.97404491342604], [232.84622929280158, 168.09521911561023]]}}, {"type": "Feature", "properties": {"layer": "RD", "kind": "existing_road_edge"}, "geometry": {"type": "LineString", "coordinates": [[232.84622929280158, 168.09521911561023], [233.71622709254734, 172.55678407207597]]}}, {"type": "Feature", "properties": {"layer": "RD", "kind": "existing_road_edge"}, "geometry": {"type": "LineString", "coordinates": [[233.71622709254734, 172.55678407207597], [238.76015776593704, 177.6835923306644]]}}, {"type": "Feature", "properties": {"layer": "RD", "kind": "existing_road_edge"}, "geometry": {"type": "LineString", "coordinates": [[238.76015776593704, 177.6835923306644], [239.77853096579202, 179.19572763948236]]}}, {"type": "Feature", "properties": {"layer": "RD", "kind": "existing_road_edge"}, "geometry": {"type": "LineString", "coordinates": [[239.77853096579202, 179.19572763948236], [241.7040387399029, 183.8317378521897]]}}, {"type": "Feature", "properties": {"layer": "RD", "kind": "existing_road_edge"}, "geometry": {"type": "LineString", "coordinates": [[241.7040387399029, 183.8317378521897], [249.55148570577148, 196.0578659893945]]}}, {"type": "Feature", "properties": {"layer": "RD", "kind": "existing_road_edge"}, "geometry": {"type": "LineString", "coordinates": [[249.55148570577148, 196.0578659893945], [255.63489220512565, 203.90179782232735]]}}, {"type": "Feature", "properties": {"layer": "RD", "kind": "existing_road_edge"}, "geometry": {"type": "LineString", "coordinates": [[255.63489220512565, 203.90179782232735], [263.52468125673477, 215.614300113637]]}}, {"type": "Feature", "properties": {"layer": "RD", "kind": "existing_road_edge"}, "geometry": {"type": "LineString", "coordinates": [[263.52468125673477, 215.614300113637], [266.76006920379587, 219.82100048149005]]}}, {"type": "Feature", "properties": {"layer": "RD", "kind": "existing_road_edge"}, "geometry": {"type": "LineString", "coordinates": [[266.76006920379587, 219.82100048149005], [273.30094616662245, 228.9065758001525]]}}, {"type": "Feature", "properties": {"layer": "RD", "kind": "existing_road_edge"}, "geometry": {"type": "LineString", "coordinates": [[273.30094616662245, 228.9065758001525], [273.8637600186048, 230.7742694853805]]}}, {"type": "Feature", "properties": {"layer": "RD", "kind": "existing_road_edge"}, "geometry": {"type": "LineString", "coordinates": [[273.8637600186048, 230.7742694853805], [282.14730273967143, 248.47956785466522]]}}, {"type": "Feature", "properties": {"layer": "RD", "kind": "existing_road_edge"}, "geometry": {"type": "LineString", "coordinates": [[282.14730273967143, 248.47956785466522], [291.74713523394894, 271.1423803102225]]}}, {"type": "Feature", "properties": {"layer": "RD", "kind": "existing_road_edge"}, "geometry": {"type": "LineString", "coordinates": [[291.74713523394894, 271.1423803102225], [296.51850426604506, 284.742614819319]]}}, {"type": "Feature", "properties": {"layer": "RD", "kind": "existing_road_edge"}, "geometry": {"type": "LineString", "coordinates": [[296.51850426604506, 284.742614819319], [305.02236984006595, 303.71350744122174]]}}, {"type": "Feature", "properties": {"layer": "RD", "kind": "existing_road_edge"}, "geometry": {"type": "LineString", "coordinates": [[305.02236984006595, 303.71350744122174], [316.0722492405912, 321.59451349428855]]}}, {"type": "Feature", "properties": {"layer": "RD", "kind": "existing_road_edge"}, "geometry": {"type": "LineString", "coordinates": [[316.0722492405912, 321.59451349428855], [324.1475994227221, 336.35162156878505]]}}, {"type": "Feature", "properties": {"layer": "RD", "kind": "existing_road_edge"}, "geometry": {"type": "LineString", "coordinates": [[324.1475994227221, 336.35162156878505], [326.6218767929822, 338.4130797451362]]}}, {"type": "Feature", "properties": {"layer": "RD", "kind": "existing_road_edge"}, "geometry": {"type": "LineString", "coordinates": [[324.8310000000056, 342.204000000027], [341.1934206945589, 355.5983092758106]]}}, {"type": "Feature", "properties": {"layer": "RD", "kind": "existing_road_edge"}, "geometry": {"type": "LineString", "coordinates": [[262.3549999999814, 220.6610000000801], [253.43299999996088, 207.73400000005495]]}}, {"type": "Feature", "properties": {"layer": "RD", "kind": "existing_road_edge"}, "geometry": {"type": "LineString", "coordinates": [[329.4429999999702, 38.24400000006426], [324.2369999999646, 36.875]]}}, {"type": "Feature", "properties": {"layer": "RD", "kind": "existing_road_edge"}, "geometry": {"type": "LineString", "coordinates": [[489.9899999999907, 6.641000000061467], [502.5910000000149, 9.735000000102445]]}}, {"type": "Feature", "properties": {"layer": "RD", "kind": "existing_road_edge"}, "geometry": {"type": "LineString", "coordinates": [[597.9429999999702, 21.368000000016764], [586.5139999999665, 19.88800000003539]]}}, {"type": "Feature", "properties": {"layer": "RD", "kind": "existing_road_edge"}, "geometry": {"type": "LineString", "coordinates": [[888.7800000000279, 357.6040000000503], [888.2111520334147, 342.2770853538532]]}}, {"type": "Feature", "properties": {"layer": "RD", "kind": "existing_road_edge"}, "geometry": {"type": "LineString", "coordinates": [[42.03999999992084, 195.79200000001583], [41.868000000016764, 194.29300000006333]]}}, {"type": "Feature", "properties": {"layer": "RD", "kind": "existing_road_edge"}, "geometry": {"type": "LineString", "coordinates": [[236.53630178119056, 182.10545537248254], [233.6785812744638, 178.5406623026356]]}}, {"type": "Feature", "properties": {"layer": "RD", "kind": "existing_road_edge"}, "geometry": {"type": "LineString", "coordinates": [[233.6785812744638, 178.5406623026356], [229.74212436028756, 174.01596928178333]]}}, {"type": "Feature", "properties": {"layer": "RD", "kind": "existing_road_edge"}, "geometry": {"type": "LineString", "coordinates": [[229.74212436028756, 174.01596928178333], [228.94710993999615, 169.52864544466138]]}}, {"type": "Feature", "properties": {"layer": "RD", "kind": "existing_road_edge"}, "geometry": {"type": "LineString", "coordinates": [[228.94710993999615, 169.52864544466138], [229.06311633612495, 155.43360506556928]]}}, {"type": "Feature", "properties": {"layer": "RD", "kind": "existing_road_edge"}, "geometry": {"type": "LineString", "coordinates": [[229.06311633612495, 155.43360506556928], [228.2205906738527, 150.66558476223145]]}}, {"type": "Feature", "properties": {"layer": "RD", "kind": "existing_road_edge"}, "geometry": {"type": "LineString", "coordinates": [[228.2205906738527, 150.66558476223145], [226.65721519710496, 146.7420747508295]]}}, {"type": "Feature", "properties": {"layer": "RD", "kind": "existing_road_edge"}, "geometry": {"type": "LineString", "coordinates": [[226.65721519710496, 146.7420747508295], [225.51516143034678, 135.3632944712881]]}}, {"type": "Feature", "properties": {"layer": "RD", "kind": "existing_road_edge"}, "geometry": {"type": "LineString", "coordinates": [[225.51516143034678, 135.3632944712881], [226.03360685438383, 125.3457261424046]]}}, {"type": "Feature", "properties": {"layer": "RD", "kind": "existing_road_edge"}, "geometry": {"type": "LineString", "coordinates": [[226.03360685438383, 125.3457261424046], [227.1828203452751, 118.0086589945713]]}}, {"type": "Feature", "properties": {"layer": "RD", "kind": "existing_road_edge"}, "geometry": {"type": "LineString", "coordinates": [[227.1828203452751, 118.0086589945713], [227.276880522375, 111.56305400910787]]}}, {"type": "Feature", "properties": {"layer": "RD", "kind": "existing_road_edge"}, "geometry": {"type": "LineString", "coordinates": [[227.276880522375, 111.56305400910787], [228.64553700678516, 106.39203547628131]]}}, {"type": "Feature", "properties": {"layer": "RD", "kind": "existing_road_edge"}, "geometry": {"type": "LineString", "coordinates": [[228.64553700678516, 106.39203547628131], [230.73958754527848, 102.57241709984373]]}}, {"type": "Feature", "properties": {"layer": "RD", "kind": "existing_road_edge"}, "geometry": {"type": "LineString", "coordinates": [[230.73958754527848, 102.57241709984373], [233.99412674666382, 97.19192734372336]]}}, {"type": "Feature", "properties": {"layer": "RD", "kind": "existing_road_edge"}, "geometry": {"type": "LineString", "coordinates": [[233.99412674666382, 97.19192734372336], [236.58820504054893, 86.10662003082689]]}}, {"type": "Feature", "properties": {"layer": "RD", "kind": "existing_road_edge"}, "geometry": {"type": "LineString", "coordinates": [[236.58820504054893, 86.10662003082689], [237.67781067301985, 79.0944117223844]]}}, {"type": "Feature", "properties": {"layer": "RD", "kind": "existing_road_edge"}, "geometry": {"type": "LineString", "coordinates": [[237.67781067301985, 79.0944117223844], [238.63332825060934, 71.95322110294364]]}}, {"type": "Feature", "properties": {"layer": "RD", "kind": "existing_road_edge"}, "geometry": {"type": "LineString", "coordinates": [[238.63332825060934, 71.95322110294364], [238.16266239108518, 69.90807972243056]]}}, {"type": "Feature", "properties": {"layer": "RD", "kind": "existing_road_edge"}, "geometry": {"type": "LineString", "coordinates": [[866.0399999999208, 149.0219999999972], [869.8649999999907, 157.70300000009593]]}}, {"type": "Feature", "properties": {"layer": "RD", "kind": "existing_road_edge"}, "geometry": {"type": "LineString", "coordinates": [[869.8649999999907, 157.70300000009593], [875.2179999999935, 171.06100000010338]]}}, {"type": "Feature", "properties": {"layer": "RD", "kind": "existing_road_edge"}, "geometry": {"type": "LineString", "coordinates": [[875.2179999999935, 171.06100000010338], [878.0229999999283, 181.40700000000652]]}}, {"type": "Feature", "properties": {"layer": "RD", "kind": "existing_road_edge"}, "geometry": {"type": "LineString", "coordinates": [[878.0229999999283, 181.40700000000652], [880.5420000000158, 190.8890000000829]]}}, {"type": "Feature", "properties": {"layer": "RD", "kind": "existing_road_edge"}, "geometry": {"type": "LineString", "coordinates": [[393.53999999992084, 501.5240000000922], [390.07600000000093, 508.19900000002235]]}}, {"type": "Feature", "properties": {"layer": "RD", "kind": "existing_road_edge"}, "geometry": {"type": "LineString", "coordinates": [[390.07600000000093, 508.19900000002235], [388.95799999998417, 511.8670000000857]]}}, {"type": "Feature", "properties": {"layer": "RD", "kind": "existing_road_edge"}, "geometry": {"type": "LineString", "coordinates": [[388.95799999998417, 511.8670000000857], [387.20999999996275, 514.737000000081]]}}, {"type": "Feature", "properties": {"layer": "RD", "kind": "existing_road_edge"}, "geometry": {"type": "LineString", "coordinates": [[388.6389999999665, 515.39300000004], [390.19900000002235, 512.8600000001024]]}}, {"type": "Feature", "properties": {"layer": "RD", "kind": "existing_road_edge"}, "geometry": {"type": "LineString", "coordinates": [[390.19900000002235, 512.8600000001024], [390.34799999999814, 512.6469999999972]]}}, {"type": "Feature", "properties": {"layer": "RD", "kind": "existing_road_edge"}, "geometry": {"type": "LineString", "coordinates": [[390.34799999999814, 512.6469999999972], [390.49499999999534, 512.5360000000801]]}}, {"type": "Feature", "properties": {"layer": "RD", "kind": "existing_road_edge"}, "geometry": {"type": "LineString", "coordinates": [[390.49499999999534, 512.5360000000801], [390.70900000003166, 512.4400000000605]]}}, {"type": "Feature", "properties": {"layer": "RD", "kind": "existing_road_edge"}, "geometry": {"type": "LineString", "coordinates": [[390.70900000003166, 512.4400000000605], [390.9290000000037, 512.4330000000773]]}}, {"type": "Feature", "properties": {"layer": "RD", "kind": "existing_road_edge"}, "geometry": {"type": "LineString", "coordinates": [[390.9290000000037, 512.4330000000773], [400.3389999999199, 515.01800000004]]}}, {"type": "Feature", "properties": {"layer": "RD", "kind": "existing_road_edge"}, "geometry": {"type": "LineString", "coordinates": [[401.5540000000037, 511.8760000000475], [395.6019999999553, 510.2070000000531]]}}, {"type": "Feature", "properties": {"layer": "RD", "kind": "existing_road_edge"}, "geometry": {"type": "LineString", "coordinates": [[395.6019999999553, 510.2070000000531], [395.26799999992363, 510.07400000002235]]}}, {"type": "Feature", "properties": {"layer": "RD", "kind": "existing_road_edge"}, "geometry": {"type": "LineString", "coordinates": [[395.26799999992363, 510.07400000002235], [394.9760000000242, 509.8520000000717]]}}, {"type": "Feature", "properties": {"layer": "RD", "kind": "existing_road_edge"}, "geometry": {"type": "LineString", "coordinates": [[394.9760000000242, 509.8520000000717], [394.85899999993853, 509.55300000007264]]}}, {"type": "Feature", "properties": {"layer": "RD", "kind": "existing_road_edge"}, "geometry": {"type": "LineString", "coordinates": [[394.85899999993853, 509.55300000007264], [394.80999999993946, 509.0709999999963]]}}, {"type": "Feature", "properties": {"layer": "RD", "kind": "existing_road_edge"}, "geometry": {"type": "LineString", "coordinates": [[394.80999999993946, 509.0709999999963], [396.8179999999702, 503.32500000006985]]}}, {"type": "Feature", "properties": {"layer": "RD", "kind": "existing_road_edge"}, "geometry": {"type": "LineString", "coordinates": [[396.8179999999702, 503.32500000006985], [398.3619999999646, 499.82500000006985]]}}, {"type": "Feature", "properties": {"layer": "RD", "kind": "existing_road_edge"}, "geometry": {"type": "LineString", "coordinates": [[398.3619999999646, 499.82500000006985], [401.83499999996275, 492.88400000007823]]}}, {"type": "Feature", "properties": {"layer": "RD", "kind": "existing_road_edge"}, "geometry": {"type": "LineString", "coordinates": [[401.83499999996275, 492.88400000007823], [406.0540000000037, 486.408000000054]]}}, {"type": "Feature", "properties": {"layer": "RD", "kind": "existing_road_edge"}, "geometry": {"type": "LineString", "coordinates": [[608.2899999999208, 630.033000000054], [598.9792502496857, 627.1528749053832]]}}, {"type": "Feature", "properties": {"layer": "RD", "kind": "existing_road_edge"}, "geometry": {"type": "LineString", "coordinates": [[593.3859999999404, 642.2010000000009], [598.265000000014, 643.2800000000279]]}}, {"type": "Feature", "properties": {"layer": "RD", "kind": "existing_road_edge"}, "geometry": {"type": "LineString", "coordinates": [[598.265000000014, 643.2800000000279], [604.6649999999208, 644.9040000000969]]}}, {"type": "Feature", "properties": {"layer": "RD", "kind": "existing_road_edge"}, "geometry": {"type": "LineString", "coordinates": [[604.6649999999208, 644.9040000000969], [611.6159999999218, 646.6570000000065]]}}, {"type": "Feature", "properties": {"layer": "RD", "kind": "existing_road_edge"}, "geometry": {"type": "LineString", "coordinates": [[611.6159999999218, 646.6570000000065], [625.8739999999525, 647.2070000000531]]}}, {"type": "Feature", "properties": {"layer": "RD", "kind": "existing_road_edge"}, "geometry": {"type": "LineString", "coordinates": [[625.8739999999525, 647.2070000000531], [630.6339999999618, 647.7030000000959]]}}, {"type": "Feature", "properties": {"layer": "RD", "kind": "existing_road_edge"}, "geometry": {"type": "LineString", "coordinates": [[630.6339999999618, 647.7030000000959], [640.4170000000158, 647.75]]}}, {"type": "Feature", "properties": {"layer": "RD", "kind": "existing_road_edge"}, "geometry": {"type": "LineString", "coordinates": [[640.4170000000158, 647.75], [649.9329999999609, 647.5860000000102]]}}, {"type": "Feature", "properties": {"layer": "RD", "kind": "existing_road_edge"}, "geometry": {"type": "LineString", "coordinates": [[649.9329999999609, 647.5860000000102], [653.7289999999339, 658.8420000000624]]}}, {"type": "Feature", "properties": {"layer": "RD", "kind": "existing_road_edge"}, "geometry": {"type": "LineString", "coordinates": [[663.5999999999767, 655.7860000000801], [661.7090000000317, 648.0389999999898]]}}, {"type": "Feature", "properties": {"layer": "RD", "kind": "existing_road_edge"}, "geometry": {"type": "LineString", "coordinates": [[661.7090000000317, 648.0389999999898], [662.3090000000084, 646.390000000014]]}}, {"type": "Feature", "properties": {"layer": "RD", "kind": "existing_road_edge"}, "geometry": {"type": "LineString", "coordinates": [[662.3090000000084, 646.390000000014], [671.4409999999916, 643.9850000001024]]}}, {"type": "Feature", "properties": {"layer": "RD", "kind": "existing_road_edge"}, "geometry": {"type": "LineString", "coordinates": [[667.5050000000047, 630.2170000000624], [657.3469999999506, 632.5879999999888]]}}, {"type": "Feature", "properties": {"layer": "RD", "kind": "existing_road_edge"}, "geometry": {"type": "LineString", "coordinates": [[657.3469999999506, 632.5879999999888], [646.4930000000168, 632.1500000000233]]}}, {"type": "Feature", "properties": {"layer": "RD", "kind": "existing_road_edge"}, "geometry": {"type": "LineString", "coordinates": [[651.4789999999339, 374.25900000007823], [652.3739999999525, 379.079000000027]]}}, {"type": "Feature", "properties": {"layer": "RD", "kind": "existing_road_edge"}, "geometry": {"type": "LineString", "coordinates": [[652.3739999999525, 379.079000000027], [653.6670000000158, 383.8040000000037]]}}, {"type": "Feature", "properties": {"layer": "RD", "kind": "existing_road_edge"}, "geometry": {"type": "LineString", "coordinates": [[653.6670000000158, 383.8040000000037], [654.5799999999581, 386.3070000000298]]}}, {"type": "Feature", "properties": {"layer": "RD", "kind": "existing_road_edge"}, "geometry": {"type": "LineString", "coordinates": [[654.5799999999581, 386.3070000000298], [658.0229999999283, 393.0030000000261]]}}, {"type": "Feature", "properties": {"layer": "RD", "kind": "existing_road_edge"}, "geometry": {"type": "LineString", "coordinates": [[658.0229999999283, 393.0030000000261], [661.951999999932, 400.8850000000093]]}}, {"type": "Feature", "properties": {"layer": "RD", "kind": "existing_road_edge"}, "geometry": {"type": "LineString", "coordinates": [[863.5889999999199, 121.05900000000838], [865.9710000000196, 126.9330000000773]]}}, {"type": "Feature", "properties": {"layer": "RD", "kind": "existing_road_edge"}, "geometry": {"type": "LineString", "coordinates": [[865.9710000000196, 126.9330000000773], [872.0760000000009, 140.66200000001118]]}}, {"type": "Feature", "properties": {"layer": "RD", "kind": "existing_road_edge"}, "geometry": {"type": "LineString", "coordinates": [[872.0760000000009, 140.66200000001118], [878.6679999999469, 155.99800000002142]]}}, {"type": "Feature", "properties": {"layer": "RD", "kind": "existing_road_edge"}, "geometry": {"type": "LineString", "coordinates": [[878.6679999999469, 155.99800000002142], [882.8839999999618, 165.67700000002515]]}}, {"type": "Feature", "properties": {"layer": "RD", "kind": "existing_road_edge"}, "geometry": {"type": "LineString", "coordinates": [[882.8839999999618, 165.67700000002515], [884.060999999987, 168.33200000005309]]}}, {"type": "Feature", "properties": {"layer": "RD", "kind": "existing_road_edge"}, "geometry": {"type": "LineString", "coordinates": [[884.060999999987, 168.33200000005309], [887.6999999999534, 167.46400000003632]]}}, {"type": "Feature", "properties": {"layer": "RD", "kind": "existing_road_edge"}, "geometry": {"type": "LineString", "coordinates": [[888.1550000000279, 170.8540000000503], [885.4980000000214, 171.51800000004005]]}}, {"type": "Feature", "properties": {"layer": "RD", "kind": "existing_road_edge"}, "geometry": {"type": "LineString", "coordinates": [[885.4980000000214, 171.51800000004005], [886.9479999999749, 176.99800000002142]]}}, {"type": "Feature", "properties": {"layer": "RD", "kind": "existing_road_edge"}, "geometry": {"type": "LineString", "coordinates": [[886.9479999999749, 176.99800000002142], [889.6879999999655, 188.27600000007078]]}}, {"type": "Feature", "properties": {"layer": "RD", "kind": "existing_road_edge"}, "geometry": {"type": "LineString", "coordinates": [[889.6879999999655, 188.27600000007078], [891.1389999999665, 199.3990000000922]]}}, {"type": "Feature", "properties": {"layer": "RD", "kind": "existing_road_edge"}, "geometry": {"type": "LineString", "coordinates": [[863.5810000000056, 121.0570000000298], [857.6739999999991, 108.57800000009593]]}}, {"type": "Feature", "properties": {"layer": "RD", "kind": "existing_road_edge"}, "geometry": {"type": "LineString", "coordinates": [[849.4639999999199, 113.85200000007171], [852.8410000000149, 121.00600000005215]]}}, {"type": "Feature", "properties": {"layer": "RD", "kind": "existing_road_edge"}, "geometry": {"type": "LineString", "coordinates": [[852.8410000000149, 121.00600000005215], [852.7239999999292, 121.56500000006054]]}}, {"type": "Feature", "properties": {"layer": "RD", "kind": "existing_road_edge"}, "geometry": {"type": "LineString", "coordinates": [[393.53999999992084, 501.5240000000922], [395.94356435118243, 496.08352172432933]]}}, {"type": "Feature", "properties": {"layer": "RD", "kind": "existing_road_edge"}, "geometry": {"type": "LineString", "coordinates": [[418.78999999992084, 670.9120000000112], [441.2139722275315, 663.4440373678226]]}}, {"type": "Feature", "properties": {"layer": "RD", "kind": "existing_road_edge"}, "geometry": {"type": "LineString", "coordinates": [[441.2139722275315, 663.4440373678226], [483.03361432871316, 650.2809512725798]]}}, {"type": "Feature", "properties": {"layer": "RD", "kind": "existing_road_edge"}, "geometry": {"type": "LineString", "coordinates": [[483.03361432871316, 650.2809512725798], [490.32883223320823, 648.176876063575]]}}, {"type": "Feature", "properties": {"layer": "RD", "kind": "existing_road_edge"}, "geometry": {"type": "LineString", "coordinates": [[490.32883223320823, 648.176876063575], [524.4824711572146, 637.2777296886779]]}}, {"type": "Feature", "properties": {"layer": "RD", "kind": "existing_road_edge"}, "geometry": {"type": "LineString", "coordinates": [[524.4824711572146, 637.2777296886779], [529.7762585234595, 635.5883662748383]]}}, {"type": "Feature", "properties": {"layer": "RD", "kind": "existing_road_edge"}, "geometry": {"type": "LineString", "coordinates": [[529.7762585234595, 635.5883662748383], [534.0553509398596, 634.9538347183261]]}}, {"type": "Feature", "properties": {"layer": "RD", "kind": "existing_road_edge"}, "geometry": {"type": "LineString", "coordinates": [[534.0553509398596, 634.9538347183261], [535.51078726165, 634.7380168981617]]}}, {"type": "Feature", "properties": {"layer": "RD", "kind": "existing_road_edge"}, "geometry": {"type": "LineString", "coordinates": [[535.51078726165, 634.7380168981617], [536.9484653029358, 634.5248218316119]]}}, {"type": "Feature", "properties": {"layer": "RD", "kind": "existing_road_edge"}, "geometry": {"type": "LineString", "coordinates": [[536.9484653029358, 634.5248218316119], [547.633613333106, 634.2714251630241]]}}, {"type": "Feature", "properties": {"layer": "RD", "kind": "existing_road_edge"}, "geometry": {"type": "LineString", "coordinates": [[547.633613333106, 634.2714251630241], [556.4905736626824, 634.0613799776183]]}}, {"type": "Feature", "properties": {"layer": "RD", "kind": "existing_road_edge"}, "geometry": {"type": "LineString", "coordinates": [[556.4905736626824, 634.0613799776183], [557.8894061302999, 634.3511371309869]]}}, {"type": "Feature", "properties": {"layer": "RD", "kind": "existing_road_edge"}, "geometry": {"type": "LineString", "coordinates": [[557.8894061302999, 634.3511371309869], [570.0559601736022, 636.8713234086754]]}}, {"type": "Feature", "properties": {"layer": "RD", "kind": "existing_road_edge"}, "geometry": {"type": "LineString", "coordinates": [[570.0559601736022, 636.8713234086754], [570.1732126941206, 637.6135617528344]]}}, {"type": "Feature", "properties": {"layer": "RD", "kind": "existing_road_edge"}, "geometry": {"type": "LineString", "coordinates": [[570.1732126941206, 637.6135617528344], [570.1801789557794, 638.482099526911]]}}, {"type": "Feature", "properties": {"layer": "RD", "kind": "existing_road_edge"}, "geometry": {"type": "LineString", "coordinates": [[570.1801789557794, 638.482099526911], [570.1228270385182, 639.3029555777321]]}}, {"type": "Feature", "properties": {"layer": "RD", "kind": "existing_road_edge"}, "geometry": {"type": "LineString", "coordinates": [[570.1228270385182, 639.3029555777321], [573.2590773934498, 639.1815555898938]]}}, {"type": "Feature", "properties": {"layer": "RD", "kind": "existing_road_edge"}, "geometry": {"type": "LineString", "coordinates": [[573.2590773934498, 639.1815555898938], [573.5192038757959, 638.5013926895335]]}}, {"type": "Feature", "properties": {"layer": "RD", "kind": "existing_road_edge"}, "geometry": {"type": "LineString", "coordinates": [[573.5192038757959, 638.5013926895335], [573.7079372170847, 638.135323347291]]}}, {"type": "Feature", "properties": {"layer": "RD", "kind": "existing_road_edge"}, "geometry": {"type": "LineString", "coordinates": [[573.7079372170847, 638.135323347291], [573.8871592608048, 637.8498233065475]]}}, {"type": "Feature", "properties": {"layer": "RD", "kind": "existing_road_edge"}, "geometry": {"type": "LineString", "coordinates": [[573.8871592608048, 637.8498233065475], [574.0621303230291, 637.7011660987046]]}}, {"type": "Feature", "properties": {"layer": "RD", "kind": "existing_road_edge"}, "geometry": {"type": "LineString", "coordinates": [[574.0621303230291, 637.7011660987046], [586.3940242747776, 640.4638091701781]]}}, {"type": "Feature", "properties": {"layer": "RD", "kind": "existing_road_edge"}, "geometry": {"type": "LineString", "coordinates": [[586.3940242747776, 640.4638091701781], [593.3859999999404, 642.2010000000009]]}}, {"type": "Feature", "properties": {"layer": "RD", "kind": "existing_road_edge"}, "geometry": {"type": "LineString", "coordinates": [[598.9792502496857, 627.1528749053832], [597.9055344105, 626.8346178518841]]}}, {"type": "Feature", "properties": {"layer": "RD", "kind": "existing_road_edge"}, "geometry": {"type": "LineString", "coordinates": [[597.9055344105, 626.8346178518841], [590.1882456206949, 625.6810053504305]]}}, {"type": "Feature", "properties": {"layer": "RD", "kind": "existing_road_edge"}, "geometry": {"type": "LineString", "coordinates": [[590.1882456206949, 625.6810053504305], [575.1703593559796, 622.0147082952317]]}}, {"type": "Feature", "properties": {"layer": "RD", "kind": "existing_road_edge"}, "geometry": {"type": "LineString", "coordinates": [[575.1703593559796, 622.0147082952317], [564.1590383917792, 619.5969818434678]]}}, {"type": "Feature", "properties": {"layer": "RD", "kind": "existing_road_edge"}, "geometry": {"type": "LineString", "coordinates": [[564.1590383917792, 619.5969818434678], [558.5101274979534, 618.0712668019114]]}}, {"type": "Feature", "properties": {"layer": "RD", "kind": "existing_road_edge"}, "geometry": {"type": "LineString", "coordinates": [[558.5101274979534, 618.0712668019114], [558.2252060677856, 618.0407623270294]]}}, {"type": "Feature", "properties": {"layer": "RD", "kind": "existing_road_edge"}, "geometry": {"type": "LineString", "coordinates": [[558.2252060677856, 618.0407623270294], [547.1270228058565, 616.8526945861522]]}}, {"type": "Feature", "properties": {"layer": "RD", "kind": "existing_road_edge"}, "geometry": {"type": "LineString", "coordinates": [[547.1270228058565, 616.8526945861522], [539.9589239071356, 617.899489004747]]}}, {"type": "Feature", "properties": {"layer": "RD", "kind": "existing_road_edge"}, "geometry": {"type": "LineString", "coordinates": [[539.9589239071356, 617.899489004747], [536.9867140926654, 618.2657371598762]]}}, {"type": "Feature", "properties": {"layer": "RD", "kind": "existing_road_edge"}, "geometry": {"type": "LineString", "coordinates": [[536.9867140926654, 618.2657371598762], [532.4345386150526, 618.9983129064785]]}}, {"type": "Feature", "properties": {"layer": "RD", "kind": "existing_road_edge"}, "geometry": {"type": "LineString", "coordinates": [[532.4345386150526, 618.9983129064785], [529.1751656647539, 619.4742947869236]]}}, {"type": "Feature", "properties": {"layer": "RD", "kind": "existing_road_edge"}, "geometry": {"type": "LineString", "coordinates": [[529.1751656647539, 619.4742947869236], [528.0507923228433, 619.6388011570089]]}}, {"type": "Feature", "properties": {"layer": "RD", "kind": "existing_road_edge"}, "geometry": {"type": "LineString", "coordinates": [[528.0507923228433, 619.6388011570089], [524.1759019902674, 620.7097615324892]]}}, {"type": "Feature", "properties": {"layer": "RD", "kind": "existing_road_edge"}, "geometry": {"type": "LineString", "coordinates": [[524.1759019902674, 620.7097615324892], [499.7435875805095, 628.6423585047014]]}}, {"type": "Feature", "properties": {"layer": "RD", "kind": "existing_road_edge"}, "geometry": {"type": "LineString", "coordinates": [[499.7435875805095, 628.6423585047014], [486.21641845430713, 633.0088837402873]]}}, {"type": "Feature", "properties": {"layer": "RD", "kind": "existing_road_edge"}, "geometry": {"type": "LineString", "coordinates": [[486.21641845430713, 633.0088837402873], [468.6979787365999, 638.4054971889127]]}}, {"type": "Feature", "properties": {"layer": "RD", "kind": "existing_road_edge"}, "geometry": {"type": "LineString", "coordinates": [[468.6979787365999, 638.4054971889127], [455.58527111657895, 642.4449126756517]]}}, {"type": "Feature", "properties": {"layer": "RD", "kind": "existing_road_edge"}, "geometry": {"type": "LineString", "coordinates": [[455.58527111657895, 642.4449126756517], [454.5812234772602, 642.7542099148268]]}}, {"type": "Feature", "properties": {"layer": "RD", "kind": "existing_road_edge"}, "geometry": {"type": "LineString", "coordinates": [[454.5812234772602, 642.7542099148268], [453.1843331841519, 643.1821898096241]]}}, {"type": "Feature", "properties": {"layer": "RD", "kind": "existing_road_edge"}, "geometry": {"type": "LineString", "coordinates": [[453.1843331841519, 643.1821898096241], [432.22009096236434, 649.6051800926216]]}}, {"type": "Feature", "properties": {"layer": "RD", "kind": "existing_road_edge"}, "geometry": {"type": "LineString", "coordinates": [[432.22009096236434, 649.6051800926216], [420.5395926438505, 653.1838460663566]]}}, {"type": "Feature", "properties": {"layer": "RD", "kind": "existing_road_edge"}, "geometry": {"type": "LineString", "coordinates": [[712.0499999999302, 89.44200000003912], [713.2249999999767, 86.88400000007823]]}}, {"type": "Feature", "properties": {"layer": "RD", "kind": "existing_road_edge"}, "geometry": {"type": "LineString", "coordinates": [[713.2249999999767, 86.88400000007823], [716.3649999999907, 79.9210000000894]]}}, {"type": "Feature", "properties": {"layer": "RD", "kind": "existing_road_edge"}, "geometry": {"type": "LineString", "coordinates": [[716.3649999999907, 79.9210000000894], [721.0489999999991, 69.65800000005402]]}}, {"type": "Feature", "properties": {"layer": "RD", "kind": "existing_road_edge"}, "geometry": {"type": "LineString", "coordinates": [[721.0489999999991, 69.65800000005402], [721.2359999999171, 69.35800000000745]]}}, {"type": "Feature", "properties": {"layer": "RD", "kind": "existing_road_edge"}, "geometry": {"type": "LineString", "coordinates": [[721.2359999999171, 69.35800000000745], [721.5389999999898, 69.16200000001118]]}}, {"type": "Feature", "properties": {"layer": "RD", "kind": "existing_road_edge"}, "geometry": {"type": "LineString", "coordinates": [[721.5389999999898, 69.16200000001118], [721.8260000000009, 69.10600000002887]]}}, {"type": "Feature", "properties": {"layer": "RD", "kind": "existing_road_edge"}, "geometry": {"type": "LineString", "coordinates": [[721.8260000000009, 69.10600000002887], [722.1319999999832, 69.14600000006612]]}}, {"type": "Feature", "properties": {"layer": "RD", "kind": "existing_road_edge"}, "geometry": {"type": "LineString", "coordinates": [[722.1319999999832, 69.14600000006612], [722.5590000000084, 69.39500000001863]]}}, {"type": "Feature", "properties": {"layer": "RD", "kind": "existing_road_edge"}, "geometry": {"type": "LineString", "coordinates": [[722.5590000000084, 69.39500000001863], [730.6130000000121, 75.12400000006892]]}}, {"type": "Feature", "properties": {"layer": "RD", "kind": "existing_road_edge"}, "geometry": {"type": "LineString", "coordinates": [[733.2509999999311, 70.27900000009686], [719.9009999999544, 61.79000000003725]]}}, {"type": "Feature", "properties": {"layer": "RD", "kind": "existing_road_edge"}, "geometry": {"type": "LineString", "coordinates": [[719.9009999999544, 61.79000000003725], [713.2380000000121, 57.57600000000093]]}}, {"type": "Feature", "properties": {"layer": "RD", "kind": "existing_road_edge"}, "geometry": {"type": "LineString", "coordinates": [[713.2380000000121, 57.57600000000093], [705.8299999999581, 52.86499999999069]]}}, {"type": "Feature", "properties": {"layer": "RD", "kind": "existing_road_edge"}, "geometry": {"type": "LineString", "coordinates": [[688.6659999999683, 49.66300000005867], [700.3099999999395, 55.88600000005681]]}}, {"type": "Feature", "properties": {"layer": "RD", "kind": "existing_road_edge"}, "geometry": {"type": "LineString", "coordinates": [[700.3099999999395, 55.88600000005681], [706.810999999987, 58.662000000011176]]}}, {"type": "Feature", "properties": {"layer": "RD", "kind": "existing_road_edge"}, "geometry": {"type": "LineString", "coordinates": [[706.810999999987, 58.662000000011176], [712.7750000000233, 62.53100000007544]]}}, {"type": "Feature", "properties": {"layer": "RD", "kind": "existing_road_edge"}, "geometry": {"type": "LineString", "coordinates": [[712.7750000000233, 62.53100000007544], [713.1209999999264, 62.72700000007171]]}}, {"type": "Feature", "properties": {"layer": "RD", "kind": "existing_road_edge"}, "geometry": {"type": "LineString", "coordinates": [[713.1209999999264, 62.72700000007171], [716.8719999999739, 65.42600000009406]]}}, {"type": "Feature", "properties": {"layer": "RD", "kind": "existing_road_edge"}, "geometry": {"type": "LineString", "coordinates": [[716.8719999999739, 65.42600000009406], [717.1469999999972, 65.68000000005122]]}}, {"type": "Feature", "properties": {"layer": "RD", "kind": "existing_road_edge"}, "geometry": {"type": "LineString", "coordinates": [[717.1469999999972, 65.68000000005122], [717.2399999999907, 65.91500000003725]]}}, {"type": "Feature", "properties": {"layer": "RD", "kind": "existing_road_edge"}, "geometry": {"type": "LineString", "coordinates": [[717.2399999999907, 65.91500000003725], [717.2149999999674, 66.13800000003539]]}}, {"type": "Feature", "properties": {"layer": "RD", "kind": "existing_road_edge"}, "geometry": {"type": "LineString", "coordinates": [[717.2149999999674, 66.13800000003539], [707.5009999999311, 87.4210000000894]]}}, {"type": "Feature", "properties": {"layer": "RD", "kind": "existing_road_edge"}, "geometry": {"type": "LineString", "coordinates": [[800.1979999999749, 154.1710000000894], [812.7210000000196, 148.14600000006612]]}}, {"type": "Feature", "properties": {"layer": "RD", "kind": "existing_road_edge"}, "geometry": {"type": "LineString", "coordinates": [[812.7210000000196, 148.14600000006612], [816.9379999999655, 146.25600000005215]]}}, {"type": "Feature", "properties": {"layer": "RD", "kind": "existing_road_edge"}, "geometry": {"type": "LineString", "coordinates": [[816.9379999999655, 146.25600000005215], [826.5629999999655, 141.91600000008475]]}}, {"type": "Feature", "properties": {"layer": "RD", "kind": "existing_road_edge"}, "geometry": {"type": "LineString", "coordinates": [[826.5629999999655, 141.91600000008475], [838.5960000000196, 135.81100000010338]]}}, {"type": "Feature", "properties": {"layer": "RD", "kind": "existing_road_edge"}, "geometry": {"type": "LineString", "coordinates": [[880.7078953074524, 190.9002846571384], [886.9012289553648, 250.4396573730046]]}}, {"type": "Feature", "properties": {"layer": "RD", "kind": "existing_road_edge"}, "geometry": {"type": "LineString", "coordinates": [[886.9012289553648, 250.4396573730046], [887.9109358164715, 264.3696772827534]]}}, {"type": "Feature", "properties": {"layer": "RD", "kind": "existing_road_edge"}, "geometry": {"type": "LineString", "coordinates": [[887.9109358164715, 264.3696772827534], [888.8540416283067, 277.38082237925846]]}}, {"type": "Feature", "properties": {"layer": "RD", "kind": "existing_road_edge"}, "geometry": {"type": "LineString", "coordinates": [[888.8540416283067, 277.38082237925846], [888.5640233727172, 293.32391445944086]]}}, {"type": "Feature", "properties": {"layer": "RD", "kind": "existing_road_edge"}, "geometry": {"type": "LineString", "coordinates": [[900.0411076041637, 286.3418969833292], [899.1382670133607, 277.17617033433635]]}}, {"type": "Feature", "properties": {"layer": "RD", "kind": "existing_road_edge"}, "geometry": {"type": "LineString", "coordinates": [[899.1382670133607, 277.17617033433635], [898.1162968840217, 267.29214256699197]]}}, {"type": "Feature", "properties": {"layer": "RD", "kind": "existing_road_edge"}, "geometry": {"type": "LineString", "coordinates": [[898.1162968840217, 267.29214256699197], [896.9002644119319, 255.59659044106957]]}}, {"type": "Feature", "properties": {"layer": "RD", "kind": "existing_road_edge"}, "geometry": {"type": "LineString", "coordinates": [[896.9002644119319, 255.59659044106957], [895.9687907720217, 245.55199761735275]]}}, {"type": "Feature", "properties": {"layer": "RD", "kind": "existing_road_edge"}, "geometry": {"type": "LineString", "coordinates": [[895.9687907720217, 245.55199761735275], [895.2296580738621, 237.71724560391158]]}}, {"type": "Feature", "properties": {"layer": "RD", "kind": "existing_road_edge"}, "geometry": {"type": "LineString", "coordinates": [[895.2296580738621, 237.71724560391158], [894.7212996755261, 232.3287530358648]]}}, {"type": "Feature", "properties": {"layer": "RD", "kind": "existing_road_edge"}, "geometry": {"type": "LineString", "coordinates": [[894.7212996755261, 232.3287530358648], [894.2550623972202, 227.38662256114185]]}}, {"type": "Feature", "properties": {"layer": "RD", "kind": "existing_road_edge"}, "geometry": {"type": "LineString", "coordinates": [[894.2550623972202, 227.38662256114185], [893.4523177511292, 218.8776687211357]]}}, {"type": "Feature", "properties": {"layer": "RD", "kind": "existing_road_edge"}, "geometry": {"type": "LineString", "coordinates": [[893.4523177511292, 218.8776687211357], [892.6900622305693, 213.21148779813666]]}}, {"type": "Feature", "properties": {"layer": "RD", "kind": "existing_road_edge"}, "geometry": {"type": "LineString", "coordinates": [[892.6900622305693, 213.21148779813666], [892.6054718426894, 211.35226340254303]]}}, {"type": "Feature", "properties": {"layer": "RD", "kind": "existing_road_edge"}, "geometry": {"type": "LineString", "coordinates": [[892.6054718426894, 211.35226340254303], [891.1861562582199, 199.4812492240453]]}}, {"type": "Feature", "properties": {"layer": "RD", "kind": "existing_road_edge"}, "geometry": {"type": "LineString", "coordinates": [[861.9919999999693, 140.42600000009406], [866.0399999999208, 149.0219999999972]]}}, {"type": "Feature", "properties": {"layer": "RD", "kind": "existing_road_edge"}, "geometry": {"type": "LineString", "coordinates": [[705.8299999999581, 52.86499999999069], [686.7229999999981, 43.802000000025146]]}}, {"type": "Feature", "properties": {"layer": "RD", "kind": "existing_road_edge"}, "geometry": {"type": "LineString", "coordinates": [[733.4110620309366, 70.3837057055207], [734.2147267645923, 70.28263164439704]]}}, {"type": "Feature", "properties": {"layer": "RD", "kind": "existing_road_edge"}, "geometry": {"type": "LineString", "coordinates": [[733.2509999999311, 70.27900000009686], [733.4110620309366, 70.3837057055207]]}}, {"type": "Feature", "properties": {"layer": "RD", "kind": "existing_road_edge"}, "geometry": {"type": "LineString", "coordinates": [[734.2147267645923, 70.28263164451346], [735.127083688858, 69.91199298982974]]}}, {"type": "Feature", "properties": {"layer": "RD", "kind": "existing_road_edge"}, "geometry": {"type": "LineString", "coordinates": [[735.127083688858, 69.91199298982974], [735.9902831470827, 69.13515573635232]]}}, {"type": "Feature", "properties": {"layer": "RD", "kind": "existing_road_edge"}, "geometry": {"type": "LineString", "coordinates": [[735.9902831470827, 69.13515573635232], [736.9080270994455, 67.84431607811712]]}}, {"type": "Feature", "properties": {"layer": "RD", "kind": "existing_road_edge"}, "geometry": {"type": "LineString", "coordinates": [[736.9080270994455, 67.84431607811712], [741.3178050705465, 58.452876040828414]]}}, {"type": "Feature", "properties": {"layer": "RD", "kind": "existing_road_edge"}, "geometry": {"type": "LineString", "coordinates": [[748.8353090476012, 53.88490558392368], [738.7272922088159, 75.66848861728795]]}}, {"type": "Feature", "properties": {"layer": "RD", "kind": "existing_road_edge"}, "geometry": {"type": "LineString", "coordinates": [[738.7272922088159, 75.66848861728795], [737.48199999996, 75.35900000005495]]}}, {"type": "Feature", "properties": {"layer": "RD", "kind": "existing_road_edge"}, "geometry": {"type": "LineString", "coordinates": [[737.0267890150426, 76.99592030944768], [734.2255083644995, 76.64840666460805]]}}, {"type": "Feature", "properties": {"layer": "RD", "kind": "existing_road_edge"}, "geometry": {"type": "LineString", "coordinates": [[734.2255083644995, 76.64840666460805], [730.8681714955019, 75.24018394574523]]}}, {"type": "Feature", "properties": {"layer": "RD", "kind": "existing_road_edge"}, "geometry": {"type": "LineString", "coordinates": [[730.8681714955019, 75.24018394574523], [730.6130000000121, 75.12400000006892]]}}, {"type": "Feature", "properties": {"layer": "POND", "kind": "pond_edge"}, "geometry": {"type": "LineString", "coordinates": [[406.20780033408664, 486.35280858853366], [420.4123311827425, 461.2511059381068], [424.3062376747839, 466.2812829341274], [424.47834584582597, 466.91207995510194], [439.19155466055963, 475.81900934304576], [442.47913525789045, 477.8092134896433], [446.20701060805004, 460.70474035455845], [460.4524175405968, 441.1823334635701], [442.20830855343957, 422.9620871710358], [440.24106654524803, 424.63550853868946], [437.68178504600655, 426.8125467165373], [437.03092592186294, 427.0276454652194], [434.53727809898555, 427.8517676461488], [435.61588695971295, 428.74115819414146], [430.52828070067335, 428.39236876543146], [429.9517578674713, 428.352832834702], [418.5906385916751, 441.166261000908], [417.80172831285745, 442.4420409325976], [418.37092135101557, 444.5281347060809], [417.0875062576961, 457.30597039463464], [415.0918475941289, 461.81826859200373], [412.1795043309685, 467.53492521564476], [402.4955904822564, 484.3670418956317]]}}, {"type": "Feature", "properties": {"layer": "POND", "kind": "pond_edge"}, "geometry": {"type": "LineString", "coordinates": [[420.4123311827425, 461.2511059381068], [417.0875062576961, 457.30597039463464]]}}, {"type": "Feature", "properties": {"layer": "TBM", "kind": "tbm", "rl": 100.0}, "geometry": {"type": "Point", "coordinates": [231.78700000001118, 630.2570000000997]}}, {"type": "Feature", "properties": {"layer": "WELL", "kind": "well_label"}, "geometry": {"type": "Point", "coordinates": [693.262999999919, 201.75900000007823]}}, {"type": "Feature", "properties": {"layer": "TF", "kind": "transformer_label"}, "geometry": {"type": "Point", "coordinates": [408.1929999999702, 665.1990000000224]}}]}