{"type": "FeatureCollection", "name": "client_zoning_plan_registered", "crs_note": "Coordinates are LOCAL metres: x = UTM43N(EPSG:32643) E - 706106.927, y = N - 953717.901. Levels are RL on assumed datum TBM=100.000 (not MSL).", "features": [{"type": "Feature", "properties": {"name": "COMMERCIAL & CONVENTION CENTRE", "label_area_ac": 1.5, "drawn_area_ac": 3.76, "in_scope_ac": 3.73, "geometry_confidence": "approximate"}, "geometry": {"type": "Polygon", "coordinates": [[[304.31369874300435, 159.79341078491416], [286.901645014761, 159.481285695103], [279.40308661351446, 577.7083762490656], [269.62463184120134, 592.2942095643375], [260.65005660802126, 605.6809523036936], [239.8461803747341, 620.7097101609688], [235.90795768867247, 623.6322823333321], [237.57804574270267, 624.8401313739596], [238.9862141010817, 625.85855360399], [240.1816786164418, 626.7231431471882], [240.75092206709087, 627.1348341080593], [241.63117393443827, 627.7714540580055], [249.3488105982542, 635.0994110121392], [269.35210355895106, 647.46168930782], [276.50984019832686, 628.248704448808], [287.42671024485026, 626.4849494560622], [286.73224618739914, 616.931990574114], [285.158996669692, 604.2496922346763], [285.1544466938358, 604.2130139138317], [324.21062804118264, 583.3809844764182], [328.16282410977874, 619.4480380924651], [333.427974701277, 664.2172682681121], [377.99785142275505, 664.9215817148797], [357.10623499844223, 573.056760906009], [364.87445403425954, 570.5264618756482], [360.63605873740744, 559.1437114839209], [352.07423713465687, 540.9161464095814], [311.97087045782246, 540.1972612554673], [311.83117913862225, 547.9900111372117], [297.35823702218477, 547.7305719908327], [304.31369874300435, 159.79341078491416]]]}}, {"type": "Feature", "properties": {"name": "PROJECT - 1 (VILLAS)", "label_area_ac": 3.51, "drawn_area_ac": 4.54, "in_scope_ac": 4.1, "geometry_confidence": "approximate"}, "geometry": {"type": "Polygon", "coordinates": [[[301.34606558457017, 323.39690608356614], [297.324714679271, 547.7299710757798], [311.83117913850583, 547.9900111372117], [311.95040965406224, 541.3386773912935], [311.97087045782246, 540.1972612554673], [352.07423713465687, 540.9161464095814], [347.7843752584886, 535.383708780515], [370.16708824271336, 518.6635107503971], [371.2468217468122, 517.1527269124053], [381.2035686026793, 523.6269299383275], [388.16174686863087, 511.69828663312364], [395.7224050840596, 496.0398795953952], [416.6971158005763, 459.67056778632104], [416.69759222341236, 441.9766241302714], [428.12673176417593, 429.17083065107], [307.98267695016693, 321.49228033749387], [301.34606558457017, 323.39690608356614]]]}}, {"type": "Feature", "properties": {"name": "PROJECT - 2 (VILLAS)", "label_area_ac": 8.0, "drawn_area_ac": 7.77, "in_scope_ac": 7.77, "geometry_confidence": "good"}, "geometry": {"type": "Polygon", "coordinates": [[[304.40814925555605, 305.2970710931113], [424.9537328334991, 413.33548969379626], [455.9335983701749, 413.8908287403174], [459.7932646253612, 198.57742269476876], [460.43092632852495, 181.58111917495262], [366.05613124743104, 163.83106940682046], [366.0094970277278, 164.0790177214658], [364.7881470731227, 163.5925864285091], [365.2095623926725, 157.93634515535086], [351.73414806392975, 160.95645155152306], [335.55838647903875, 160.95601600699592], [314.44695559714455, 159.94066242850386], [304.27818587620277, 159.7723933137022], [301.75982659787405, 300.83069570933003], [302.8422028240748, 303.8817223912338], [304.40814925555605, 305.2970710931113]]]}}, {"type": "Feature", "properties": {"name": "BATCHING PLANT", "label_area_ac": 1.2, "drawn_area_ac": 1.51, "in_scope_ac": 1.51, "geometry_confidence": "approximate"}, "geometry": {"type": "Polygon", "coordinates": [[[571.22807457007, 415.95757510489784], [455.9335983701749, 413.8908287403174], [424.9537328334991, 413.33548969379626], [304.40814925555605, 305.2970710931113], [302.8422028240748, 303.8817223912338], [301.77058489224873, 301.6342270396417], [301.3830337487161, 323.2496849971358], [307.98267695016693, 321.49228033749387], [421.1793845547363, 422.9443030281691], [442.2101506731706, 423.32129645277746], [460.1945453763474, 441.04364787763916], [445.7983967605978, 461.25020464591216], [442.4544178090291, 477.6523971890565], [497.7296121312538, 494.6712533889804], [498.9903721428709, 424.33912766352296], [571.0546717423713, 425.6309382872423], [571.22807457007, 415.95757510489784]]]}}, {"type": "Feature", "properties": {"name": "APARTMENTS & FUTURE DEVELOPMENT", "label_area_ac": 6.2, "drawn_area_ac": 6.18, "in_scope_ac": 5.39, "geometry_confidence": "good"}, "geometry": {"type": "Polygon", "coordinates": [[[651.83781473618, 475.15746539994143], [613.5432944588829, 468.38950446026865], [613.5434842542745, 461.34066010289825], [678.1779905137373, 452.2256084874971], [675.2570801893016, 438.3213517999975], [671.9988484058995, 425.0849749033805], [670.3046224293066, 420.9550539570628], [646.1857818310382, 424.20607013930567], [643.8243021921953, 416.2042836557375], [622.3326670271344, 416.8736660933355], [571.22807457007, 415.95757510489784], [571.0546717423713, 425.6309382872423], [498.9903721428709, 424.33912766352296], [497.7296121312538, 494.6712533890968], [483.96360607410315, 527.1463576734532], [551.7095715802861, 531.9810214228928], [546.3564902493963, 563.0377189713763], [577.8034152270993, 557.5713612069376], [580.3440454168012, 555.2441279127961], [630.7601677390048, 573.4725907109678], [608.0721939044306, 624.8971340018325], [609.8744110165862, 625.6922534538899], [608.2402083285851, 629.9381941076135], [618.1148082998116, 630.3208769063931], [627.989408271038, 630.7035597051727], [646.6915042614564, 631.9973900250625], [681.1264076629886, 555.1778161500115], [679.1007306704996, 539.8452357067727], [679.0802215029253, 536.9228387662442], [670.5904020162998, 520.3874335382134], [666.0314869538415, 505.3360388734145], [662.8894531360129, 506.2537713480415], [660.418843664811, 488.3076428506756], [653.2800969773671, 487.7573378934758], [653.338921837043, 476.40023816679604], [651.83781473618, 475.15746539994143]]]}}, {"type": "Feature", "properties": {"name": "PROJECT - 3(PREMIUM VILLAS)", "label_area_ac": 7.2, "drawn_area_ac": 6.79, "in_scope_ac": 6.79, "geometry_confidence": "good"}, "geometry": {"type": "Polygon", "coordinates": [[[587.9154369323514, 377.38836180756334], [604.2585363341495, 335.61493824014906], [649.7020810067188, 351.72568194405176], [649.4174100783421, 343.11064527125563], [648.9146664554719, 327.8960437212372], [646.8148243648466, 312.06073376117274], [644.2096712192288, 307.86369779577944], [643.5646835654043, 306.8245894482825], [633.2569153379882, 301.8716926423367], [619.7055838406086, 295.3602592254756], [600.7799247334478, 286.2664540024707], [591.1954221227206, 281.22841568116564], [585.5297255981714, 278.82307928649243], [573.7791525623761, 273.83444622834213], [558.4457489029737, 265.8655709869927], [543.9092292302521, 254.58796279667877], [508.4821281093173, 227.10318825941067], [472.4560239444254, 197.3038975900272], [460.43092632852495, 181.58111917495262], [459.7932646253612, 198.57742269476876], [455.9335983701749, 413.8908287403174], [622.3326670271344, 416.8736660933355], [628.2982657526154, 403.10023579664994], [631.872926849057, 384.7901336826617], [610.2433437078726, 389.6851440850878], [582.9186814818531, 387.19116101274267], [589.3994010888273, 384.51506426592823], [587.9154369323514, 377.38836180756334]]]}}, {"type": "Feature", "properties": {"name": "PROJECT - 4 (VILLAS)", "label_area_ac": 5.2, "drawn_area_ac": 4.84, "in_scope_ac": 4.81, "geometry_confidence": "good"}, "geometry": {"type": "Polygon", "coordinates": [[[279.40308661351446, 577.7083762490656], [284.34304617601447, 302.18542840424925], [197.26975614286494, 300.6318549856078], [196.08728554926347, 364.6637188276509], [189.41023729881272, 425.15306151332334], [188.06456426216755, 442.45345694979187], [190.5537042330252, 449.81376423710026], [188.9604713366134, 459.3262811106397], [190.06087123509496, 462.7494923569029], [207.73788515478373, 484.1337599448161], [218.23581812740304, 498.8845911640674], [232.4634907383006, 515.087978009251], [250.03030254575424, 533.6444544354454], [265.17910182639025, 561.2759003429674], [277.7808240270242, 580.1281912638806], [279.40308661351446, 577.7083762490656]]]}}, {"type": "Feature", "properties": {"name": "SENIOR LIVING", "label_area_ac": 5.6, "drawn_area_ac": 5.43, "in_scope_ac": 3.06, "geometry_confidence": "good"}, "geometry": {"type": "Polygon", "coordinates": [[[286.1556593014393, 201.08814100991003], [136.83841121697333, 198.429047182668], [100.21054213715252, 197.77546641405206], [42.28123561129905, 196.72914336028043], [43.228986979229376, 202.03018354601227], [51.41437776002567, 212.79734713048674], [58.53819145017769, 244.16030179802328], [59.75411933369469, 260.14634855650365], [65.39369553118013, 254.93303866521455], [71.53364767355379, 256.2967940472299], [86.13489236752503, 264.2793051021872], [90.55932829028461, 283.19517784938216], [93.01631645020097, 289.2367973178625], [92.85282743105199, 292.96679378370754], [93.1883313653525, 294.92260291439015], [95.44180296640843, 298.79922144452576], [197.2698155833641, 300.63185604615137], [284.34304617601447, 302.18542840424925], [286.1556593014393, 201.08814100991003]]]}}, {"type": "Feature", "properties": {"name": "CLUBHOUSE", "label_area_ac": 8.0, "drawn_area_ac": 7.88, "in_scope_ac": 7.38, "geometry_confidence": "good"}, "geometry": {"type": "Polygon", "coordinates": [[[227.94438480166718, 72.33463308925275], [196.81587917590514, 85.90285571187269], [185.1010502227582, 90.13679360691458], [175.38990211416967, 92.74540264031384], [159.6942081839079, 99.83781347225886], [140.53397042967845, 101.61966471862979], [122.90567974490114, 103.25904895446729], [113.36402211850509, 104.14639778342098], [110.31630809023045, 104.4298270973377], [109.16975866234861, 138.71411430940498], [71.80673244560603, 145.73877289611846], [58.05587952269707, 146.70950950414408], [36.509919851319864, 148.2305389213143], [37.59145822690334, 158.05540694808587], [38.733488675323315, 168.2062158054905], [40.028256006888114, 177.06393402128015], [41.922782717854716, 194.99388220871333], [42.28123561129905, 196.72914336028043], [196.53334347950295, 199.48158879985567], [286.1556593014393, 201.08814100991003], [286.9011645669816, 159.4812770826975], [314.44647514948156, 159.94065381609835], [335.55790603125934, 160.95600739459042], [352.6074561299756, 160.76060968195088], [365.2090819448931, 157.93633654294536], [365.5514884520089, 147.1922706788173], [365.6684822755633, 118.98454671527725], [360.7354083904065, 101.3472835131688], [352.7418822257314, 103.58304167597089], [345.76308699767105, 100.7494705101708], [333.33224823349155, 91.37716565153096], [316.0305929350434, 87.01764735928737], [315.2097469277214, 83.26480242749676], [312.51186968840193, 66.85468111443333], [308.22581166482996, 47.78896625293419], [308.2263436380308, 36.72911201440729], [292.73063503578305, 37.746950459550135], [261.89143118739594, 29.544423204963095], [251.54121877986472, 35.65089366910979], [247.92044401087333, 39.93925249471795], [247.70563617453445, 45.47905893600546], [245.33181640389375, 66.73677242244594], [239.23455988697242, 68.1898061473621], [227.94438480166718, 72.33463308925275]]]}}, {"type": "Feature", "properties": {"name": "HOSPITAL", "label_area_ac": 5.1, "drawn_area_ac": 4.1, "in_scope_ac": 0.42, "geometry_confidence": "good"}, "geometry": {"type": "Polygon", "coordinates": [[[190.76668946666177, 412.908532343572], [193.11760372598656, 391.6871145106852], [194.57144621224143, 378.56345475115813], [196.12406436237507, 364.54815905576106], [197.26994613884017, 300.62457294145133], [95.44180296640843, 298.79922144452576], [105.81519607268274, 317.1380157788517], [106.71017260907684, 321.22345823794603], [103.86122064793017, 324.39780686201993], [100.85971984092612, 331.74552260152996], [95.39450812421273, 342.7203525691293], [90.62274995679036, 352.9925384011585], [85.81572341790888, 359.3142495400971], [79.75875736109447, 372.7961669025244], [74.82405951013789, 383.7800799724646], [70.07101014384534, 394.35967017919756], [83.66478828585241, 408.72782548808027], [93.22582420462277, 418.3534902987303], [97.40413026418537, 423.2498367584776], [100.85824561433401, 426.9007177193416], [106.22714666440152, 432.5754612174351], [111.82073420356028, 438.48769059602637], [136.21814648143481, 464.2749150953023], [105.79001533833798, 492.4872860580217], [109.4102110825479, 496.39180691575166], [121.69533388654236, 486.1968720027944], [188.997250149725, 459.21072133956477], [190.59048304741737, 449.6982044703327], [188.0651622278383, 442.2309115700191], [189.41023729881272, 425.15306151332334], [190.76668946666177, 412.908532343572]]]}}, {"type": "Feature", "properties": {"name": "SCHOOL", "label_area_ac": 10.3, "drawn_area_ac": 9.25, "in_scope_ac": 6.98, "geometry_confidence": "good"}, "geometry": {"type": "Polygon", "coordinates": [[[781.9574954438722, 330.7487164372578], [756.1134480923647, 333.8500059891958], [742.6871470387559, 334.61032302479725], [739.5805372413015, 335.1744561713422], [724.9199271119433, 286.1984829388093], [776.916270348127, 277.72800475009717], [774.9242379469797, 259.94756836397573], [772.7622868686449, 260.4823579026852], [761.0430486423429, 220.4900385629153], [749.841641866602, 225.5548247321276], [755.3223419240676, 241.18625299655832], [717.0803813555976, 255.0608512617182], [717.0298618910601, 252.42886714474298], [684.3598141049733, 263.08266411558725], [699.8156848211074, 296.5781061539892], [673.4233535527019, 309.2495931229787], [654.6512787572574, 318.26244229997974], [655.841311376309, 334.01470112998504], [657.0313439953607, 349.76695996010676], [657.4195711144712, 354.9058561270358], [657.4189661843702, 377.3724584877491], [664.1799445491051, 393.6861409515841], [743.198580081109, 393.6882685876917], [744.0311206169426, 408.662595563801], [755.4981517087435, 411.1556817723904], [755.5365845490014, 442.99657431815285], [758.2212934041163, 462.1250980627956], [771.577694577165, 499.6638060439145], [776.8023831750033, 510.6546731250128], [784.6160145648755, 519.3160617573885], [803.5215579125797, 517.2750100701815], [803.5641713326331, 514.4466401835671], [811.8282969166758, 515.030404931982], [817.4805169585161, 515.0808910409687], [818.1924462685129, 514.4444921732647], [823.31579246826, 513.4868680732325], [829.0135207268177, 513.487021488836], [835.2686384666013, 513.4871899125865], [837.97559585399, 512.4468944709515], [840.3445759636816, 512.4893603477394], [848.2464931516442, 512.4895731128054], [860.1355304963654, 512.726621775073], [877.4501396733103, 510.65568114980124], [873.0993813669775, 498.83609687071294], [912.4667475263122, 488.0235374744516], [905.4463678476168, 473.31852185330354], [895.9541344041936, 442.2731343843043], [894.8504791051382, 438.03786104160827], [892.5778717008652, 422.6835562903434], [890.035574313486, 406.7444477402605], [888.695901523577, 395.36834923387505], [889.2617052551359, 370.52307108731475], [888.9355443521636, 357.40999232023023], [888.1390140783042, 341.44162565423176], [888.034256157116, 339.3415009607561], [888.0118377789622, 327.36197203036863], [888.0119645359227, 322.6543228625087], [888.0125409623142, 301.2463297706563], [840.7605192731135, 324.4289925539633], [839.7845198268769, 319.1875447012717], [815.716812083032, 320.982740220963], [816.2535959886154, 326.6361526736291], [781.9574954438722, 330.7487164372578]]]}}, {"type": "Feature", "properties": {"name": "PHASE 2", "label_area_ac": 10.0, "drawn_area_ac": 9.36, "in_scope_ac": 9.36, "geometry_confidence": "good"}, "geometry": {"type": "Polygon", "coordinates": [[[545.3032423746772, 118.54382782673929], [539.8296935876133, 115.7142259440152], [517.9301109622465, 114.46126324916258], [514.8731454209192, 114.16772297478747], [509.846106117242, 109.79555862571578], [488.67756686452776, 106.50645039184019], [472.06460974295624, 99.37066186999436], [440.37546902219765, 95.39749187172856], [441.74711932067294, 63.12514249456581], [432.0531725193141, 63.45467902137898], [430.6493489848217, 62.618746854015626], [413.92555738973897, 64.76425463380292], [412.3619442115305, 91.88516891852487], [354.0370184968924, 84.57241635629907], [368.4618482119404, 102.73634490696713], [369.7606635547709, 117.45408270927146], [371.45295768394135, 157.28220864536706], [373.9378328183666, 158.6015481702052], [406.3139112276258, 165.84855911135674], [461.79775663116015, 176.74169051507488], [504.88107171363663, 213.8641738857841], [525.2763060012367, 231.43760676204693], [530.1491648267256, 235.63627671974245], [531.4747085785493, 236.77842364576645], [543.8646205543773, 246.58450516569428], [546.0327879667748, 249.9643061500974], [561.3875235086307, 261.89121710462496], [588.8988867001608, 274.5416221403284], [595.4161699555116, 277.39993885939475], [605.2789151195902, 282.06785704859067], [625.8176006220747, 291.78856888320297], [631.9373933257302, 294.68499287054874], [648.9467191267759, 302.73530137713533], [651.4701406243257, 305.54433401755523], [653.5308911069296, 313.7831613444723], [654.6512787572574, 318.26244229997974], [699.8156848211074, 296.5781061539892], [684.3598141049733, 263.08266411558725], [717.0298618910601, 252.42886714474298], [712.108987369691, 240.68433088972233], [697.9732964294963, 218.06564792001154], [696.9365349774016, 214.85087087389547], [702.4654728540918, 194.4088649993064], [686.717046042555, 181.96420013159513], [670.2508002114482, 170.05610377457924], [655.1315884435317, 161.4742763901595], [640.505409302772, 155.83259100595023], [636.5997710172087, 154.92352221079636], [556.6549559121486, 120.53766779531725], [545.3032423746772, 118.54382782673929]]]}}, {"type": "Feature", "properties": {"name": "PHASE 3", "label_area_ac": 10.6, "drawn_area_ac": 11.6, "in_scope_ac": 8.55, "geometry_confidence": "good"}, "geometry": {"type": "MultiPolygon", "coordinates": [[[[950.8174847433111, -39.78501845279243], [902.6779677051818, -40.647958075860515], [902.4884305932792, -30.074535805382766], [950.6279476314085, -29.211596182431094], [950.8174847433111, -39.78501845279243]]], [[[902.1936457861448, -13.629818395362236], [950.333162824274, -12.766878772410564], [950.5226999362931, -23.340301042771898], [902.3831828981638, -24.203240665839985], [902.1936457861448, -13.629818395362236]]], [[[950.2279151291586, -6.895583632751368], [902.0883980910294, -7.758523255819455], [901.8988609791268, 2.8148990146582946], [950.038378017256, 3.677838637609966], [950.2279151291586, -6.895583632751368]]], [[[901.6040761719923, 19.259616424678825], [949.7435932101216, 20.122556047630496], [949.9331303221406, 9.549133777269162], [901.7936132840114, 8.686194154201075], [901.6040761719923, 19.259616424678825]]], [[[949.6383455150062, 25.993851187173277], [901.498828476877, 25.130911564221606], [901.3092913649743, 35.70433383458294], [949.4488084031036, 36.56727345765103], [949.6383455150062, 25.993851187173277]]], [[[949.3435607079882, 42.43856859719381], [901.204043669859, 41.575628974242136], [901.0145065578399, 52.14905124460347], [949.1540235959692, 53.01199086767156], [949.3435607079882, 42.43856859719381]]], [[[949.0487759008538, 58.88328600721434], [900.9092588627245, 58.020346384262666], [900.7197217508219, 68.593768654624], [948.8592387889512, 69.45670827769209], [949.0487759008538, 58.88328600721434]]], [[[767.1617011440685, 111.67661065759603], [764.2842240160098, 105.85764923715033], [761.3395512200659, 97.80099906388205], [756.6196277701529, 89.16934071923606], [743.6839916188037, 78.17958205810282], [737.7499277002644, 75.02413607004564], [736.6531335870968, 77.08674351056106], [732.1581166904652, 75.83861376543064], [721.485853403341, 68.8193793182727], [717.4686698359437, 65.68301293370314], [706.3029771515867, 56.68357503542211], [690.0463477416197, 49.980183407780714], [676.8899928058963, 45.695523477043025], [664.4117362374673, 39.59098265308421], [658.2087514559971, 39.84694739279803], [635.7595935247373, 31.598556458950043], [618.4359885466984, 29.446316822664812], [585.9302182445535, 23.77458476368338], [570.8209915817715, 23.774177936371416], [564.1484137154184, 23.2791791097261], [548.771207408281, 21.772946610930376], [527.7528058118187, 21.77238067460712], [487.5023174606031, 10.940800026175566], [478.30987455381546, 7.0074016655562446], [460.462616820354, 1.3893516334937885], [452.0171994824195, -3.055804210482165], [446.09937587194145, -3.0559635523241013], [445.8382565641077, 7.37054705992341], [443.12308030272834, 20.726689489674754], [440.09563453122973, 28.121915406081825], [435.40045637323055, 39.59095756779425], [433.1051414718386, 53.93727355601732], [431.10222793533467, 60.3192889529746], [445.24387757934164, 60.31966972746886], [468.5452475460479, 64.21324043162167], [472.06460974295624, 99.37066186999436], [488.67756686452776, 106.50645039184019], [509.846106117242, 109.79555862571578], [514.8818558010971, 114.09488463099115], [517.9599934992148, 114.15006272890605], [539.7794948876835, 115.68827525980305], [545.3032423746772, 118.54382782673929], [555.8748476551846, 120.20212772418745], [636.5997710172087, 154.92352221079636], [640.505409302772, 155.83259100595023], [655.1315884435317, 161.4742763901595], [669.1452296532225, 169.25657479430083], [670.2508002114482, 170.05610377457924], [686.717046042555, 181.96420013159513], [702.4654728540918, 194.4088649993064], [696.9365349774016, 214.85087087389547], [697.9732964294963, 218.06564792001154], [703.2320501110516, 226.450335915084], [712.108987369691, 240.68433088972233], [717.0298618910601, 252.42886714474298], [717.0803813555976, 255.0608512617182], [755.3223419240676, 241.18625299655832], [749.841641866602, 225.5548247321276], [761.0210107089952, 220.50000315229408], [756.9648962013889, 211.52939965378027], [807.7242854713695, 184.2862146391999], [801.730256186449, 173.36208695394453], [774.3183425462339, 188.136472740327], [765.0670846055727, 172.84166097990237], [785.2421778057469, 162.02652579464484], [781.4041228074348, 157.31933685648255], [773.161795089487, 144.65876079024747], [789.0267029915703, 136.14321734476835], [775.9436971710529, 120.08033223368693], [771.2387129443232, 115.80221338116098], [767.1617011440685, 111.67661065759603]]], [[[953.1627348229522, -170.6159632310737], [905.0232177848229, -171.47890285402536], [904.8336806729203, -160.90548058366403], [952.9731977110496, -160.04254096059594], [953.1627348229522, -170.6159632310737]]], [[[904.5388958659023, -144.4607631736435], [952.6784129040316, -143.5978235505754], [952.8679500159342, -154.17124582105316], [904.7284329778049, -155.03418544400483], [904.5388958659023, -144.4607631736435]]], [[[952.5731652087998, -137.72652841103263], [904.4336481706705, -138.5894680339843], [904.2441110587679, -128.01604576362297], [952.3836280968972, -127.15310614055488], [952.5731652087998, -137.72652841103263]]], [[[903.962354628602, -112.29812285548542], [952.1018716667313, -111.43518323253375], [952.2914087786339, -122.00860550289508], [904.1518917406211, -122.87154512596317], [903.962354628602, -112.29812285548542]]], [[[903.6676393256057, -95.85728276229929], [951.807156363735, -94.9943431392312], [951.9966934756376, -105.56776540970895], [903.8571764375083, -106.43070503277704], [903.6676393256057, -95.85728276229929]]], [[[951.7019086686196, -89.12304799968842], [903.5623916304903, -89.98598762275651], [903.3728545185877, -79.41256535227876], [951.5123715566006, -78.54962572932709], [951.7019086686196, -89.12304799968842]]], [[[903.0780697114533, -62.96784794225823], [951.2175867495826, -62.10490831930656], [951.4071238614852, -72.6783305896679], [903.2676068233559, -73.54127021273598], [903.0780697114533, -62.96784794225823]]], [[[902.7832154002972, -46.519253215403296], [950.9227324384265, -45.656313592451625], [951.1122695503291, -56.22973586281296], [902.9727525123162, -57.092675485881045], [902.7832154002972, -46.519253215403296]]]]}}, {"type": "Feature", "properties": {"name": "PHASE 4", "label_area_ac": 1.9, "drawn_area_ac": 1.8, "in_scope_ac": 0.0, "geometry_confidence": "good"}, "geometry": {"type": "Polygon", "coordinates": [[[543.3939942846773, -42.0002353428863], [521.6799105732935, -46.28956167807337], [514.9196349857375, -48.18400146334898], [501.661272986792, -48.85524127993267], [493.7763462092262, -48.855453587602824], [484.95628219936043, -25.27575565618463], [483.5680695667397, -19.20577255205717], [478.09273211297113, 2.6782981912838295], [490.0247464827262, 6.536403963225894], [503.3134339841781, 9.3939924815204], [522.5968298452208, 15.525938703212887], [537.9050078986911, 18.925135575584136], [554.7999323881231, 18.925590484053828], [574.8434506170452, 20.110242103110068], [586.912033513654, 19.82623120408971], [597.8179985644529, 21.3809034768492], [604.1499765274348, -12.553668803651817], [610.0883580582449, -11.22963100450579], [611.76640073827, -28.14431288780179], [612.1549234748818, -43.490816435893066], [603.0264976122417, -45.7786987364525], [604.1142167804064, -71.79877680749632], [598.8511743015843, -72.82340483146254], [594.5829816762125, -28.926543974201195], [580.4783314834349, -30.525349515024573], [581.132945924066, -36.30035307898652], [556.120623387862, -41.1976916892454], [543.3939942846773, -42.0002353428863]]]}}]}